"university_name_en","university_name_ru","address","longitude","latitude","university_wiki_link","university_logo_filename","source","syllabus_link_1","syllabus_name_1","reference_1_1","reference_1_2","reference_1_3","reference_1_4","reference_1_5","reference_1_6","reference_1_7","reference_1_8","reference_1_9","syllabus_link_2","syllabus_name_2","reference_2_1","reference_2_2","reference_2_3","reference_2_4","reference_2_5","reference_2_6","reference_2_7","syllabus_link_3","syllabus_name_3","reference_3_1","reference_3_2","reference_3_3","reference_3_4","reference_3_5","reference_3_6","reference_3_7","reference_3_8","syllabus_link_4","syllabus_name_4","reference_4_1","reference_4_2","reference_4_3","reference_4_4","syllabus_link_5","syllabus_name_5","reference_5_1","reference_5_2","reference_5_3","syllabus_link_6","syllabus_name_6","reference_6_1","reference_6_2","reference_6_3","reference_6_4","reference_6_5","reference_6_6","reference_6_7","reference_6_8","reference_6_9","reference_6_10","syllabus_link_7","syllabus_name_7","reference_7_1","reference_7_2","reference_7_3","reference_7_4","syllabus_link_8","syllabus_name_8","reference_8_1","reference_8_2","reference_8_3"
"American University","Американский университет","4400 Massachusetts Ave NW, Washington, DC 20016",-77.0867947,38.9383923,"https://en.wikipedia.org/wiki/American_University","american_university.png","Confirmed by instructor",,,,,,,,,,,,,,,,,,,,,,,,,,,,,,,,,,,,,,,,,,,,,,,,,,,,,,,,,,,,,,,,
"Barnard College","Барнард колледж ","3009 Broadway, New York, NY 10027",-73.9636765,40.8092613,"https://en.wikipedia.org/wiki/Barnard_College","barnard_college.png","Confirmed by instructor",,,,,,,,,,,,,,,,,,,,,,,,,,,,,,,,,,,,,,,,,,,,,,,,,,,,,,,,,,,,,,,,
"Bates College","Бейтс колледж","2 Andrews Rd, Lewiston, ME 04240",-70.2052681,44.1069618,"https://en.wikipedia.org/wiki/Bates_College","bates_college.png","Confirmed by instructor",,,,,,,,,,,,,,,,,,,,,,,,,,,,,,,,,,,,,,,,,,,,,,,,,,,,,,,,,,,,,,,,
"Baylor University","Университет Бейлор","1301 S University Parks Dr, Waco, TX 76798",-97.1151771,31.550983,"https://en.wikipedia.org/wiki/Baylor_University","baylor_university.png","Confirmed by instructor",,,,,,,,,,,,,,,,,,,,,,,,,,,,,,,,,,,,,,,,,,,,,,,,,,,,,,,,,,,,,,,,
"Brown University","Университет Брауна","Providence, Rhode Island 02912, USA",-71.43938,41.8158,"https://en.wikipedia.org/wiki/Brown_University","brown_university.png","Confirmed by instructor",,,,,,,,,,,,,,,,,,,,,,,,,,,,,,,,,,,,,,,,,,,,,,,,,,,,,,,,,,,,,,,,
"Case Western Reserve University","Университет Кейс Вестерн Резерв","10900 Euclid Ave, Cleveland, OH 44106",-81.6089419,41.505847,"https://en.wikipedia.org/wiki/Case_Western_Reserve_University","case_western_reserve_university.png","Confirmed by instructor","http://politicalscience.case.edu/faculty/kelly-mcmann/","Politics of Russia","<a href=""https://www.jstor.org/stable/153859"" target=""_blank"">Volkov 1999</a>",,,,,,,,,"http://politicalscience.case.edu/faculty/kelly-mcmann/","Introduction to Comparative Politics","<a href=""https://books.google.ru/books?id=lem_HPslbvoC&lpg=PA81&ots=9e8cOAeYYv&lr&pg=PA81#v=onepage&q&f=false"" target=""_blank"">Volkov 2002</a>",,,,,,,,,,,,,,,,,,,,,,,,,,,,,,,,,,,,,,,,,,,,,,,,,,
"City University of New York","Городской университет Нью-Йорка","217 E 42nd St, New York, NY 10017",-73.97349,40.75054,"https://en.wikipedia.org/wiki/City_University_of_New_York","city_university_new_york.png","Confirmed by university website","http://www.baruch.cuny.edu/courses/detail.jsp?discipline=ANT&course=1001","Introduction to Cultural Anthropology","<a href=""https://www.amazon.com/Composing-History-Constitution-Identities-Woodrow/dp/0801873851"" target=""_blank"">Utekhin 2003</a>",,,,,,,,,,,,,,,,,,,,,,,,,,,,,,,,,,,,,,,,,,,,,,,,,,,,,,,,,,,,,
"Claremont McKenna College","Колледж Клермонт Маккена","888 Columbia Ave, Claremont, CA 91711",-117.7113068,34.1024307,"https://en.wikipedia.org/wiki/Claremont_McKenna_College","claremont_mckenna_college.png","Confirmed by instructor",,,,,,,,,,,,,,,,,,,,,,,,,,,,,,,,,,,,,,,,,,,,,,,,,,,,,,,,,,,,,,,,
"Clark University","Университет Кларка","950 Main St, Worcester, MA 01610",-71.8274089,42.2517286,"https://en.wikipedia.org/wiki/Clark_University","clark_university.png","Confirmed by instructor","https://www2.clarku.edu/faculty/facultybio.cfm?id=7","Russian Politics: From Dictatorship to Democracy…and Back Again","<a href=""https://books.google.com/books?id=1QDzCAAAQBAJ&printsec=frontcover&dq=Authoritarian+Russia:+Analyzing+Post-Soviet+Regime+Changes&hl=en&sa=X&ved=0ahUKEwj8go2XyvbSAhXEFJoKHXZVAOoQ6AEIHDAA"" target=""_blank"">Gel'man 2015</a>",,,,,,,,,,,,,,,,,,,,,,,,,,,,,,,,,,,,,,,,,,,,,,,,,,,,,,,,,,,,,
"Columbia University","Колумбийский университет","116th St & Broadway, New York, NY 10027",-73.96381,40.80798,"https://en.wikipedia.org/wiki/Columbia_University","columbia_university.png","Confirmed by university website","http://www.columbia.edu/~sf2220/TT2008/web-content/Pages/syllabus.html","Thing Theory","<a href=""https://philpapers.org/rec/KHATAR-2"" target=""_blank"">Kharkhordin 2005</a>",,,,,,,,,"https://barnard.edu/sites/default/files/colloquium_on_warlords_and_states_2017.pdf","State Failure, Warlords, and Pirates","<a href=""http://www.cornellpress.cornell.edu/book/?GCOI=80140100364090"" target=""_blank"">Volkov 2002</a>",,,,,,,"http://www.columbia.edu/~mh2245/2010_Syllabus.pdf","Political Economy of Development","<a href=""https://www.jstor.org/stable/153859?seq=1#page_scan_tab_contents"" target=""_blank"">Volkov 1999</a>",,,,,,,,,,,,,,,,,,,,,,,,,,,,,,,,,,,,,,,,,
"Cornell University","Корнелльский университет","Ithaca, NY 14850",-76.4939,42.4415,"https://en.wikipedia.org/wiki/Cornell_University","cornell_university.png","Confirmed by instructor","http://russian.cornell.edu/russian.web/courses/413/413_des_F15.htm","Russian","<a href=""http://kommunalka.colgate.edu/"" target=""_blank"">Utekhin Kommunalka""</a>",,,,,,,,,,,,,,,,,,,,,,,,,,,,,,,,,,,,,,,,,,,,,,,,,,,,,,,,,,,,,
"Emory University","Университет Эмори","201 Dowman Dr, Atlanta, GA 30322",-84.3254063,33.7896865,"https://en.wikipedia.org/wiki/Emory_University","emory_university.png","Confirmed by university website","https://secure.web.emory.edu/atlas/syllabus/5151/HIST241W-000.docx","Topics in History and Text Intimacy and Terror","<a href=""https://books.google.com/books?id=PbQqdOu3xJUC&printsec=frontcover&dq=The+Collective+and+the+Individual+in+Russia:+A+Study+of+Practices&hl=en&sa=X&ved=0ahUKEwjboMOGy_bSAhXDiiwKHS-KAFAQ6AEIHDAA"" target=""_blank"">Kharkhordin 1999</a>",,,,,,,,,,,,,,,,,,,,,,,,,,,,,,,,,,,,,,,,,,,,,,,,,,,,,,,,,,,,,
"Fordham University","Фордхемский университет","113 W 60th Street New York, NY 10023",-73.98579,40.77064,"https://en.wikipedia.org/wiki/Fordham_University","fordham_university.png","Confirmed by university website","http://faculty.fordham.edu/onikolayenko/Nikolayenko%20SyllabusChinaRussia%202015.pdf","China and Russia in Comparative Perspective","<a href=""https://www2.gwu.edu/~ieresgwu/assets/docs/503-522_Gelman.pdf"" target=""_blank"">Gel'man 2014</a>",,,,,,,,,,,,,,,,,,,,,,,,,,,,,,,,,,,,,,,,,,,,,,,,,,,,,,,,,,,,,
"Georgetown University","Джорджтаунский университет","3700 O St NW, Washington, DC 20057",-77.0714279,38.9075451,"https://en.wikipedia.org/wiki/Georgetown_University","georgetown_university.png","Confirmed by university website","http://faculty.georgetown.edu/kingch/GOVT_720_SocMob_syllabus_Spr_03.htm","Comparative Politics Field Seminar: Social Mobilization","<a href=""https://books.google.ru/books?id=lem_HPslbvoC&lpg=PA81&ots=9e8cOAeYYv&lr&pg=PA81#v=onepage&q&f=false"" target=""_blank"">Volkov 2002</a>",,,,,,,,,,,,,,,,,,,,,,,,,,,,,,,,,,,,,,,,,,,,,,,,,,,,,,,,,,,,,
"George Washington University","Университет Джорджа Вашингтона","2121 I St NW, Washington, DC 20052",-77.0476599,38.90099,"https://en.wikipedia.org/wiki/George_Washington_University","george_washington_university.png","Confirmed by instructor",,,,,,,,,,,,,,,,,,,,,,,,,,,,,,,,,,,,,,,,,,,,,,,,,,,,,,,,,,,,,,,,
"Harvard University","Гарвардский университет","Massachusetts Hall, Cambridge, MA 02138",-71.1189,42.37458,"https://en.wikipedia.org/wiki/Harvard_University","harvard_university.png","Confirmed by university website","http://scholar.harvard.edu/files/mskalamera/files/syllabus_gov1243_14_jan_8.pdf","Russian Politics in Transition","<a href=""https://www.jstor.org/stable/153859"" target=""_blank"">Volkov 1999</a>","<a href=""https://books.google.ru/books?id=26BEAgAAQBAJ&lpg=PP1&dq=isbn%3A1137336919&hl=ru&pg=PP1#v=onepage&q&f=false"" target=""_blank"">Gel'man 2013</a>",,,,,,,,"http://scholar.harvard.edu/files/zhukov/files/yz_rus_0.pdf","Political Economy of Russia","<a href=""https://www2.gwu.edu/~ieresgwu/assets/docs/demokratizatsiya%20archive/GWASHU_DEMO_16_3/701773P8W0768637/701773P8W0768637.pdf"" target=""_blank"">Volkov 2008</a>","<a href=""http://www.tandfonline.com/doi/abs/10.2747/1060-586X.24.1.40"" target=""_blank"">Gel'man & Lankina 2008</a>",,,,,,,,,,,,,,,,,,,,,,,,,,,,,,,,,,,,,,,,,,,,,,,,,
"Indiana University","Университет Индианы","107 S Indiana Ave, Bloomington, IN 47405",-86.5267868,39.1663818,"https://en.wikipedia.org/wiki/Indiana_University","indiana_university.png","Confirmed by university website","http://www.indiana.edu/~cahist/course3.html","Russia and its Orient, 1552-1900","<a href=""http://www.jstor.org/stable/2678032"" target=""_blank"">Kharkhordin 2001</a>",,,,,,,,,"http://www.indiana.edu/~medanth/","Anthropology of Russia and East Europe ","<a href=""http://kommunalka.colgate.edu/"" target=""_blank"">Utekhin Kommunalka""</a>",,,,,,,,,,,,,,,,,,,,,,,,,,,,,,,,,,,,,,,,,,,,,,,,,,
"Kent State University","Кентский государственный университет","800 E Summit St, Kent, OH 44240",-85.58564,42.9210014,"https://en.wikipedia.org/wiki/Kent_State_University","kent_state_university.png","Confirmed by instructor","https://www.kent.edu/polisci/profile/andrew-barnes","Russian Politics and Economics","<a href=""http://www.tandfonline.com/doi/abs/10.1080/09668130802161165"" target=""_blank"">Gel'man 2008</a>
","<a href=""https://www.jstor.org/stable/153859"" target=""_blank"">Volkov 1999</a>",,,,,,,,,,,,,,,,,,,,,,,,,,,,,,,,,,,,,,,,,,,,,,,,,,,,,,,,,,,,
"Kharkiv National University","Харьковский национальный университет","Svobody Square, 4, Kharkiv, Kharkiv Oblast, Ukraine, 61000",36.22815,50.0043,"https://en.wikipedia.org/wiki/National_University_of_Kharkiv","kharkiv_university.png","Confirmed by instructor",,,,,,,,,,,,,,,,,,,,,,,,,,,,,,,,,,,,,,,,,,,,,,,,,,,,,,,,,,,,,,,,
"King's College London","Королевский колледж Лондона","Strand, London WC2R 2LS, UK",-0.11688,51.51208,"https://en.wikipedia.org/wiki/King%27s_College_London","kings_college_london.png","Confirmed by instructor",,,,,,,,,,,,,,,,,,,,,,,,,,,,,,,,,,,,,,,,,,,,,,,,,,,,,,,,,,,,,,,,
"Koç University","Кос университет","Rumelifeneri Mahallesi, Rumelifeneri Yolu, 34450 Sarıyer/İstanbul, Turkey",29.08345,41.20843,"https://en.wikipedia.org/wiki/Koç_University","koc_university.png","Confirmed by instructor","http://home.ku.edu.tr/~sakturk/","Eurasia: Politics and Society since 1914","<a href=""https://www.jstor.org/stable/153859"" target=""_blank"">Volkov 1999</a>",,,,,,,,,,,,,,,,,,,,,,,,,,,,,,,,,,,,,,,,,,,,,,,,,,,,,,,,,,,,,
"Kyiv Mohyla Academy","Киево-Могилянская академия","Hryhoriya Skovorody St, 2, Kyiv, Ukraine, 04655",30.51936,50.46519,"https://en.wikipedia.org/wiki/National_University_of_Kyiv-Mohyla_Academy","mohyla_academy.png","Confirmed by instructor",,,,,,,,,,,,,,,,,,,,,,,,,,,,,,,,,,,,,,,,,,,,,,,,,,,,,,,,,,,,,,,,
"London School of Economics","Лондонская школа экономики","Houghton St, London WC2A 2AE, UK",-0.11665,51.51385,"https://en.wikipedia.org/wiki/London_School_of_Economics","london_school_economics.png","Confirmed by instructor","http://readinglists.lse.ac.uk/lists/B75215B1-71C9-9E0B-CD80-D2A3089D28C0.html","Power and Politics in the Modern World: Comparative Perspectives","<a href=""https://books.google.com/books?id=s4p13RqFKZAC&pg=PA98&dq=The+Logic+of+Crony+Capitalism+Big+Oil,+Big+Politics+and+Big+Business+in+Russia&hl=en&sa=X&ved=0ahUKEwjM7Y3Yy_bSAhXEDiwKHbxIAToQ6AEIHDAA"" target=""_blank"">Gel'man 2010</a>",,,,,,,,,"http://readinglists.lse.ac.uk/lists/2DA0B0A4-60F2-D7BA-9EBA-50E7028E20F8.html","History of Russia","<a href=""https://books.google.ru/books/about/Five_Empresses.html?id=14XuJKb14BYC&redir_esc=y"" target=""_blank"">Anisimov 2004</a>","<a href=""https://books.google.ru/books/about/The_Reforms_of_Peter_the_Great.html?id=B9odY-NlXwwC&redir_esc=y"" target=""_blank"">Anisimov 1993</a>","<a href=""https://www.amazon.com/Empress-Elizabeth-Russia-1741-1761-Russian/dp/0875691404"" target=""_blank"">Anisimov 1995</a>",,,,,,,,,,,,,,,,,,,,,,,,,,,,,,,,,,,,,,,,,,,,,,,,
"Middlebury Institute of International Studies at Monterey","Миддлбурский институт международных исследований в Монтерее","460 Pierce St, Monterey, CA 93940",-121.89715,36.59922,"https://en.wikipedia.org/wiki/Middlebury_Institute_of_International_Studies_at_Monterey","middlebury_institute_monterey.png","Confirmed by instructor",,,,,,,,,,,,,,,,,,,,,,,,,,,,,,,,,,,,,,,,,,,,,,,,,,,,,,,,,,,,,,,,
"McGill University","МакГилл университет","845 Sherbrooke St W, Montreal, QC H3A 0G4, Canada",-73.6711678,45.4448332,"https://en.wikipedia.org/wiki/McGill_University","mcgill_university.png","Confirmed by instructor","http://www.mcgill.ca/politicalscience/files/politicalscience/poli_329-johnson-w15-outline.pdf","Russian and Soviet Politics","<a href=""http://www.tandfonline.com/doi/pdf/10.1080/09668136.2011.557538"" target=""_blank"">Gel'man & Ryzhenkov 2011</a>",,,,,,,,,,,,,,,,,,,,,,,,,,,,,,,,,,,,,,,,,,,,,,,,,,,,,,,,,,,,,
"New School, New York","Новая школа, Нью-Йорк","Johnson Hall, 66 W 12th St, New York, NY 10011",-73.997,40.73559,"https://en.wikipedia.org/wiki/The_New_School","new_school.png","Confirmed by instructor",,,,,,,,,,,,,,,,,,,,,,,,,,,,,,,,,,,,,,,,,,,,,,,,,,,,,,,,,,,,,,,,
"New York University","Нью-Йоркский университет","70 Washington Square South New York, NY, 10012",-73.99702,40.72966,"https://en.wikipedia.org/wiki/New_York_University","new_york_university.png","Confirmed by university website","http://www.politics.as.nyu.edu/docs/IO/27054/Salitan_S13.pdf","Politics of Russia and the Commonwealth of Independent States","<a href=""https://books.google.ru/books?id=lem_HPslbvoC&lpg=PA81&ots=9e8cOAeYYv&lr&pg=PA81#v=onepage&q&f=false"" target=""_blank"">Volkov 2002</a>","<a href=""https://www.cambridge.org/core/books/soviet-and-post-soviet-identities/nation-construction-in-post-soviet-central-asia/8C874CAE4F27EFD52FC54B31423E7950"" target=""_blank"">Abashin 2012</a>",,,,,,,,"https://www.nyu.edu/content/dam/nyu/globalPrgms/documents/london/academics/East%20European%20Politics%20and%20Government%20Syllabus%20Fall%202013%20UPDATED%202.10.13.pdf","East European Government and Politics","<a href=""http://www.tandfonline.com/doi/pdf/10.1080/09668139808412576"" target=""_blank"">Kharkhordin 1998</a>","<a href=""http://regconf.hse.ru/uploads/af36aef2ed0e18f00c79507f262a88b86351d2ff.pdf"" target=""_blank"">Sharples 2012</a>",,,,,,"http://www.politics.as.nyu.edu/docs/IO/36795/RussianPoliticsSyllabus.Spring2015.pdf","Russian Politics","<a href=""http://www.tandfonline.com/doi/abs/10.1080/09668136.2011.566427"" target=""_blank"">Golosov 2011</a>",,,,,,,,,,,,,,,,,,,,,,,,,,,,,,,,,,,,,,,,,
"New York University, Abu Dhabi","Нью-Йоркский университет, Абу-Даби","Saadiyat Marina District - Abu Dhabi - United Arab Emirates",54.44915,24.5438,"https://en.wikipedia.org/wiki/New_York_University_Abu_Dhabi","new_york_university_abu_dhabi.png","Confirmed by instructor",,,,,,,,,,,,,,,,,,,,,,,,,,,,,,,,,,,,,,,,,,,,,,,,,,,,,,,,,,,,,,,,
"Newcastle University","Университет Ньюкасл","Newcastle upon Tyne NE1 7RU, UK",-1.61614,54.98019,"https://en.wikipedia.org/wiki/Newcastle_University","newcastle_university.png","Confirmed by university website","https://rlo.ncl.ac.uk/modules/SOC3089/2016","Memory, Identity and Nation-building in Eastern Europe: The View from Anthropology","<a href=""https://books.google.com/books?id=PbQqdOu3xJUC&printsec=frontcover&dq=The+collective+and+the+individual+in+Russia:+a+study+of+practices&hl=en&sa=X&ved=0ahUKEwjtjvO8zPbSAhVKD5oKHX3gDHYQ6AEIHDAA"" target=""_blank"">Kharkhordin 1999</a>",,,,,,,,,,,,,,,,,,,,,,,,,,,,,,,,,,,,,,,,,,,,,,,,,,,,,,,,,,,,,
"Northwestern University","Северо-западный университет","633 Clark St, Evanston, IL 60208",-87.679245,42.0499268,"https://en.wikipedia.org/wiki/Northwestern_University","northwestern_university.png","Confirmed by university website","http://faculty.wcas.northwestern.edu/~jlg562/documents/PS490InformalInstitutionsSyllabus-Fall2015.pdf","Informal Institutions: Institutionalism for Developing Countries","<a href=""https://books.google.ru/books?id=WVp1Q1hbw-EC&lpg=PR2&hl=ru&pg=PR5#v=onepage&q&f=false"" target=""_blank"">Gel'man 2012</a>","<a href=""http://www.cornellpress.cornell.edu/book/?GCOI=80140100364090"" target=""_blank"">Volkov 2002</a>","<a href=""https://www.jstor.org/stable/153859?seq=1#page_scan_tab_contents"" target=""_blank"">Volkov 1999</a>","<a href=""http://journals.sagepub.com/doi/abs/10.1177/0032329200028004003"" target=""_blank"">Volkov 2000</a>",,,,,,"http://faculty.wcas.northwestern.edu/~jlg562/documents/PS369Winter2016.pdf","The Politics of Post-Soviet Russia","<a href=""http://www.tandfonline.com/doi/full/10.1080/09668130802161165"" target=""_blank"">Gel'man 2008</a>","<a href=""https://books.google.ru/books?id=F0yGCwAAQBAJ"" target=""_blank"">Volkov 2002</a>",,,,,,,,,,,,,,,,,,,,,,,,,,,,,,,,,,,,,,,,,,,,,,,,,
"Oberlin College","Оберлин колледж","173 W Lorain St, Oberlin, OH 44074",-82.2236099,41.29361,"https://en.wikipedia.org/wiki/Oberlin_College","oberlin_college.png","Confirmed by university website","https://new.oberlin.edu/dotAsset/32b0af40-1471-4877-b3d3-f1c4c67579cb.pdf","Post-Soviet Politics","<a href=""https://books.google.ru/books?id=ZEGVBQAAQBAJ&pg=PR8"" target=""_blank"">Gel'man 2014</a>",,,,,,,,,,,,,,,,,,,,,,,,,,,,,,,,,,,,,,,,,,,,,,,,,,,,,,,,,,,,,
"Odessa National I.I. Mechnikov University","Одесский национальный университет им. И.И. Мечникова","Dvoryanskaya str., 2, Odessa, 65082",30.729082,46.4875347,"https://en.wikipedia.org/wiki/Odessa_University","odessa_university.png","Confirmed by instructor",,,,,,,,,,,,,,,,,,,,,,,,,,,,,,,,,,,,,,,,,,,,,,,,,,,,,,,,,,,,,,,,
"Oklahoma University","Университет Оклахомы","660 Parrington Oval, Norman, OK 73019",-97.4460983,35.2103348,"https://en.wikipedia.org/wiki/University_of_Oklahoma","university_oklahoma.png","Confirmed by instructor",,,,,,,,,,,,,,,,,,,,,,,,,,,,,,,,,,,,,,,,,,,,,,,,,,,,,,,,,,,,,,,,
"Providence College","Колледж Провидения","1 Cunningham Square, Providence, RI 02918",-71.4405502,41.8432517,"https://en.wikipedia.org/wiki/Providence_College","providence_college.png","Confirmed by instructor",,,,,,,,,,,,,,,,,,,,,,,,,,,,,,,,,,,,,,,,,,,,,,,,,,,,,,,,,,,,,,,,
"Rutgers University","Университет Рутгерса","Rutgers–New Brunswick, 7 College Ave, New Brunswick, NJ 08901",-74.4468854,40.4980666,"https://en.wikipedia.org/wiki/Rutgers_University","rutgers_university.png","Confirmed by university website","http://polisci.rutgers.edu/images/Syllabifall2015/381_Humphreys_Russia_and_Eastern_European_Politics_.pdf","Politics of Russia and Eastern Europe","<a href=""http://e-collection.library.ethz.ch/eserv/eth:2202/eth-2202-01.pdf"" target=""_blank"">Miller, Mijnssen, Mikhaleva 2010</a>","<a href=""http://www.cornellpress.cornell.edu/book/?GCOI=80140100364090"" target=""_blank"">Volkov 2002</a>",,,,,,,,"http://history.rutgers.edu/faculty-directory/161-hellbeck-jochen","20 th-century Russia and the Soviet Union","<a href=""http://www.jstor.org/stable/10.5612/slavicreview.72.1.0032"" target=""_blank"">Hirst 2013</a>
","<a href=""https://www.cambridge.org/core/journals/slavic-review/article/div-classtitlethe-diaristic-form-and-subjectivity-under-khrushchevdiv/48FC90AF4442971A38523F1F655D2D6F"" target=""_blank"">Pinsky 2014</a>",,,,,,,,,,,,,,,,,,,,,,,,,,,,,,,,,,,,,,,,,,,,,,,,,
"Saint Louis University","Университет Сент-Луис","1 N Grand Blvd, St. Louis, MO 63103",-90.2339157,38.6346385,"https://en.wikipedia.org/wiki/Saint_Louis_University","saint_louis_university.png","Confirmed by university website","https://www.slu.edu/Documents/arts_sciences/political_science/POLS450.PDF","Russian Political Culture ","<a href=""https://books.google.com/books?id=PbQqdOu3xJUC&printsec=frontcover&dq=The+collective+and+the+individual+in+Russia:+a+study+of+practices&hl=en&sa=X&ved=0ahUKEwjtjvO8zPbSAhVKD5oKHX3gDHYQ6AEIHDAA"" target=""_blank"">Kharkhordin 1999</a>","<a href=""http://www.tandfonline.com/doi/pdf/10.1080/09668139808412576"" target=""_blank"">Kharkhordin 1998</a>","<a href=""http://www.tandfonline.com/doi/abs/10.1080/1465342042000294347"" target=""_blank"">Gel'man 2004</a>",,,,,,,"https://www.slu.edu/Documents/arts_sciences/political_science/POLS253.pdf","Soviet and Post-Soviet Politics","<a href=""http://www.tandfonline.com/doi/abs/10.1080/09668130802161165"" target=""_blank"">Gel'man 2008</a>","<a href=""http://www.cornellpress.cornell.edu/book/?GCOI=80140100364090"" target=""_blank"">Volkov 2002</a>",,,,,,,,,,,,,,,,,,,,,,,,,,,,,,,,,,,,,,,,,,,,,,,,,
"San Diego State University","Университет Сан-Диего","5500 Campanile Dr, San Diego, CA 92182",-117.0725327,32.7721481,"https://en.wikipedia.org/wiki/San_Diego_State_University","san_diego_state_university.png","Confirmed by university website","http://sdsu-dspace.calstate.edu/bitstream/handle/10211.10/3652/POLS555_2013%20Spr_Syllabus.DOC?sequence=1","Comparative Political Systems","<a href=""https://books.google.ru/books?id=lem_HPslbvoC&lpg=PA81&ots=9e8cOAeYYv&lr&pg=PA81#v=onepage&q&f=false"" target=""_blank"">Volkov 2002</a>",,,,,,,,,,,,,,,,,,,,,,,,,,,,,,,,,,,,,,,,,,,,,,,,,,,,,,,,,,,,,
"Stanford University","Стэндфордский Университет","450 Serra Mall, Stanford, CA 94305",-122.17006,37.42765,"https://en.wikipedia.org/wiki/Stanford_University","stanford_university.png","Confirmed by university website","http://www.timeandspace.lviv.ua/files/miller/Bobrovnikov_Islamic%20CentAsia%20after%20Emp_17.RTF","Islamic Central Asia in the Globalizing World","<a href=""http://www.ca-c.org/journal/eng-06-2000/08.abash.shtml"" target=""_blank"">Abashin 2000</a>",,,,,,,,,,,,,,,,,,,,,,,,,,,,,,,,,,,,,,,,,,,,,,,,,,,,,,,,,,,,,
"Syracuse University","Униерситет Сиракуз","900 South Crouse Ave, Syracuse, NY 13244",-76.13695,43.04024,"https://en.wikipedia.org/wiki/Syracuse_University","syracuse_university.png","Confirmed by instructor","https://www.maxwell.syr.edu/psc/Taylor,_Brian/","Brian Taylor","<a href=""https://books.google.ru/books/about/Bribery_and_Blat_in_Russia.html?id=Kv9qQgAACAAJ&redir_esc=y"" target=""_blank"">Volkov 2000</a>","<a href=""http://www.cornellpress.cornell.edu/book/?GCOI=80140100364090"" target=""_blank"">Volkov 2002</a>","<a href=""https://www.jstor.org/stable/20451566"" target=""_blank"">Gel'man 2008</a>","<a href=""https://books.google.ru/books/about/Developments_in_Russian_Politics_8.html?id=z0-xoAEACAAJ&redir_esc=y"" target=""_blank"">Gel'man 2014</a>","<a href=""http://www.tandfonline.com/doi/full/10.1080/1060586X.2015.1071014"" target=""_blank"">Gel'man 2015</a>","<a href=""https://books.google.ru/books?id=JLgoDAAAQBAJ&lpg=PA2&dq=Persistent%20State%20Weakness%20in%20the%20Global%20Age&pg=PP1#v=onepage&q&f=false"" target=""_blank"">Volkov 2009</a>",,,,,,,,,,,,,,,,,,,,,,,,,,,,,,,,,,,,,,,,,,,,,,,,,,,,,,,,
"University of Bath","Университет Бата","Claverton Down, Bath BA2 7AY, UK",-2.33059,51.38075,"https://en.wikipedia.org/wiki/University_of_Bath","university_bath.png","Confirmed by instructor",,,,,,,,,,,,,,,,,,,,,,,,,,,,,,,,,,,,,,,,,,,,,,,,,,,,,,,,,,,,,,,,
"University of Colorado Boulder","Университет Колорадо Боулдер","2055 Regent Drive, Boulder, CO 80309",-105.26298,40.00439,"https://en.wikipedia.org/wiki/University_of_Colorado_Boulder","university_colorado_boulder.png","Confirmed by instructor",,,,,,,,,,,,,,,,,,,,,,,,,,,,,,,,,,,,,,,,,,,,,,,,,,,,,,,,,,,,,,,,
"University of Chicago","Чикагский университет","5801 S Ellis Ave, Chicago, IL 60637",-87.5998,41.79015,"https://en.wikipedia.org/wiki/University_of_Chicago","university_chicago.png","Confirmed by university website","https://humdev.uchicago.edu/sites/humdev.uchicago.edu/files/uploads/Raikhel/Disordered%20States%20syllabus%20final.pdf","Disordered States","<a href=""https://www.jstor.org/stable/153859"" target=""_blank"">Volkov 1999</a>",,,,,,,,,,,,,,,,,,,,,,,,,,,,,,,,,,,,,,,,,,,,,,,,,,,,,,,,,,,,,
"University of Exeter","Университет Эксетера","Stocker Road, Exeter EX4 4PY, UK",-3.53678,50.73697,"https://en.wikipedia.org/wiki/University_of_Exeter","university_exeter.png","Confirmed by university website","http://humanities.exeter.ac.uk/history/modules/hic3312/description/","Everyday Stalinism: Soviet Life in the 1930s","<a href=""https://books.google.com/books?id=PbQqdOu3xJUC&printsec=frontcover&dq=The+collective+and+the+individual+in+Russia:+a+study+of+practices&hl=en&sa=X&ved=0ahUKEwjtjvO8zPbSAhVKD5oKHX3gDHYQ6AEIHDAA"" target=""_blank"">Kharkhordin 1999</a>",,,,,,,,,,,,,,,,,,,,,,,,,,,,,,,,,,,,,,,,,,,,,,,,,,,,,,,,,,,,,
"University of Florida","Университет Флориды","Gainesville, FL 32611",-82.35271,29.64496,"https://en.wikipedia.org/wiki/University_of_Florida","university_florida.png","Confirmed by university website","http://polisci.ufl.edu/files/POS-6933-ODwyer.docx","State-Building","<a href=""http://www.cornellpress.cornell.edu/book/?GCOI=80140100364090"" target=""_blank"">Volkov 2002</a>",,,,,,,,,"http://sites.clas.ufl.edu/anthro/files/Kernaghan-Roads-and-Road-Publics-Syllabus-Spr-2017.pdf","Roads and Road Publics","<a href=""https://books.google.ru/books/about/Making_Things_Public.html?id=xKr7mgEACAAJ&redir_esc=y"" target=""_blank"">Kharkhordin 2005</a>",,,,,,,"http://users.clas.ufl.edu/bmoraski/CPO3633_Syllabus_2017.pdf","Politics in Russia","<a href=""http://www.cornellpress.cornell.edu/book/?GCOI=80140100364090"" target=""_blank"">Volkov 2002</a>","<a href=""https://books.google.ru/books/about/Authoritarian_Russia.html?id=1QDzCAAAQBAJ&redir_esc=y"" target=""_blank"">Gel'man 2015</a>",,,,,,,,,,,,,,,,,,,,,,,,,,,,,,,,,,,,,,,,
"University of Leeds","Университет Лидса","Leeds LS2 9JT, UK",-1.55222,53.80809,"https://en.wikipedia.org/wiki/University_of_Leeds","university_leeds.png","Confirmed by university website","http://lib5.leeds.ac.uk/rlists/broker/?bbModuleId=201617_32973_SLAV3124&bbListId=_3993713_1&sess=201617","Out of the Frying Pan into the Fire: Russian Society from Perestroika to the Crimean Annexation (1985-2015)","<a href=""https://books.google.com/books?id=1QDzCAAAQBAJ&printsec=frontcover&dq=Authoritarian+Russia+:+analyzing+Post-Soviet+regime+changes&hl=en&sa=X&ved=0ahUKEwiig4q9zfbSAhXnO5oKHSPrA08Q6AEIHDAA"" target=""_blank"">Gel'man 2015</a>","<a href=""http://journals.sagepub.com/doi/pdf/10.1177/0192512107085610"" target=""_blank"">Gel'man 2008</a>","<a href=""http://www.tandfonline.com/doi/pdf/10.1080/09668139808412576"" target=""_blank"">Kharkhordin 1998</a>",,,,,,,"http://lib5.leeds.ac.uk/rlists/broker/?bbModuleId=201617_ARTS_MM6068&bbListId=_4475881_1&bbLastListId=_3660012_1&sess=201617&bbModuleIdSA=SLAV2107","Everyday Culture under the Soviet Regime","<a href=""http://kommunalka.colgate.edu/"" target=""_blank"">Utekhin Kommunalka""</a>",,,,,,,,,,,,,,,,,,,,,,,,,,,,,,,,,,,,,,,,,,,,,,,,,,
"University of Minnesota","Университет Миннесоты","3 Morrill Hall, 100 Church St. S.E., Minneapolis MN 55455",-93.2339949,44.9758682,"https://en.wikipedia.org/wiki/University_of_Minnesota","university_minnesota.png","Confirmed by instructor",,,,,,,,,,,,,,,,,,,,,,,,,,,,,,,,,,,,,,,,,,,,,,,,,,,,,,,,,,,,,,,,
"University of North Carolina","Университет Северной Каролины","Jackson Hall 153A Country Club Road Chapel Hill, NC 27514",-79.0420732,35.9114152,"https://en.wikipedia.org/wiki/University_of_North_Carolina","university_north_carolina.png","Confirmed by university website","http://www.unc.edu/depts/pwad/syllabi/RUES%20469%20Syllabus%202008.pdf","Ethnic Conflict and International Intervention in the Former Yugoslavia","<span>Vujacic ""Institutional Origins of Contemporary Serbian Nationalism"" 1996</span>",,,,,,,,,"http://anthropology.unc.edu/person/michele-rivkin-fish/","Health and Gender After Socialism","<a href=""http://www.policy.hu/takacs/courses/matters/AT-Gendered-citizenship.pdf"" target=""_blank"">Zdravomyslova & Temkina 2005</a>",,,,,,,,,,,,,,,,,,,,,,,,,,,,,,,,,,,,,,,,,,,,,,,,,,
"University of Oregon","Университет Орегона","1585 E 13th Ave, Eugene, OR 97403",-123.0700073,44.0456467,"https://en.wikipedia.org/wiki/University_of_Oregon","university_oregon.png","Confirmed by university website","http://pages.uoregon.edu/kimball/hst445.R.plt.clt.htm","Russian Political Culture","<a href=""https://books.google.ru/books/about/Main_concepts_of_Russian_politics.html?id=-Y8NAQAAMAAJ&redir_esc=y"" target=""_blank"">Kharkhordin 2005</a>",,,,,,,,,,,,,,,,,,,,,,,,,,,,,,,,,,,,,,,,,,,,,,,,,,,,,,,,,,,,,
"University of Pennsylvania","Пенсильванский университет","3451 Walnut Street, Philadelphia, PA 19104-6291",-75.1939067,39.9531449,"https://en.wikipedia.org/wiki/University_of_Pennsylvania","university_pennsylvania.png","Confirmed by university website","https://www.history.upenn.edu/sites/www.history.upenn.edu/files/HIST%20620%20-%20Nathans_Soviet%20History.pdf","Graduate Reading Seminar On Soviet History","<a href=""https://books.google.com/books?id=PbQqdOu3xJUC&printsec=frontcover&dq=The+collective+and+the+individual+in+Russia:+a+study+of+practices&hl=en&sa=X&ved=0ahUKEwjtjvO8zPbSAhVKD5oKHX3gDHYQ6AEIHDAA"" target=""_blank"">Kharkhordin 1999</a>",,,,,,,,,"http://www.history.upenn.edu/people/faculty/peter-holquist","Graduate Readings in Topics and Themes in Imperial Russian History","<a href=""https://books.google.ru/books/about/The_Reforms_of_Peter_the_Great.html?id=B9odY-NlXwwC&redir_esc=y"" target=""_blank"">Anisimov 1993</a>","<a href=""http://www.eupress.ru/books/index/item/id/209"" target=""_blank"">Лапин 2007</a>","<a href=""http://www.nlobooks.ru/node/238"" target=""_blank"">Долбилов и Миллер 2007</a>","<a href=""https://books.google.ru/books/about/%D0%A1%D0%B8%D0%BC%D0%B2%D0%BE%D0%BB%D1%8B_%D0%B2%D0%BB%D0%B0%D1%81%D1%82%D0%B8_%D0%B8_%D0%B1%D0%BE%D1%80%D1%8C.html?id=Wv6BNAEACAAJ&redir_esc=y"" target=""_blank"">Kolonitskii 2012</a>","<a href=""http://www.ceupress.com/books/html/TheUkrainianQuestion.html"" target=""_blank"">Miller 2003</a>","<a href=""https://quod.lib.umich.edu/cgi/t/text/text-idx?c=acls;cc=acls;view=toc;idno=heb08643.0001.001"" target=""_blank"">Miller 2008</a>
","<a href=""http://www.nlobooks.ru/node/2380"" target=""_blank"">Колоницкий 2010</a>","http://www.history.upenn.edu/people/faculty/peter-holquist","Reading List for PhD Exams","<a href=""https://www.piter.com/collection/starye-tovary/product/imperatorskaya-rossiya-2"" target=""_blank"">Анисимов 2008</a>","<a href=""http://www.nlobooks.ru/node/232"" target=""_blank"">Миллер 2008</a>","<a href=""https://books.google.ru/books/about/%D0%A1%D0%B8%D0%BC%D0%B2%D0%BE%D0%BB%D1%8B_%D0%B2%D0%BB%D0%B0%D1%81%D1%82%D0%B8_%D0%B8_%D0%B1%D0%BE%D1%80%D1%8C.html?id=Wv6BNAEACAAJ&redir_esc=y"" target=""_blank"">Kolonitskii 2012</a>","<a href=""http://www.ozon.ru/context/detail/id/2776527/"" target=""_blank"">Анисимов 1982</a>","<a href=""https://books.google.ru/books/about/%D0%93%D0%BE%D1%81%D1%83%D0%B4%D0%B0%D1%80%D1%81%D1%82%D0%B2%D0%B5%D0%BD%D0%BD%D1%8B%D0%B5_%D0%BF%D1%80%D0%B5%D0%BE.html?id=ov0qAAAAMAAJ&redir_esc=y"" target=""_blank"">Анисимов 1997</a>","<a href=""https://books.google.ru/books?id=NiEFAQAAIAAJ&q=%D0%B0%D0%BD%D0%B8%D1%81%D0%B8%D0%BC%D0%BE%D0%B2+%D0%B4%D1%8B%D0%B1%D0%B0+%D0%B8+%D0%BA%D0%BD%D1%83%D1%82&dq=%D0%B0%D0%BD%D0%B8%D1%81%D0%B8%D0%BC%D0%BE%D0%B2+%D0%B4%D1%8B%D0%B1%D0%B0+%D0%B8+%D0%BA%D0%BD%D1%83%D1%82&hl=en&sa=X&ved=0ahUKEwimms-ItIPTAhVrOJoKHeHrAB8Q6AEIHDAA"" target=""_blank"">Анисимов 1997</a>","<a href=""http://www.ceupress.com/books/html/TheUkrainianQuestion.html"" target=""_blank"">Miller 2003</a>","<a href=""http://www.nlobooks.ru/node/2380"" target=""_blank"">Колоницкий 2010</a>
",,,,,,,,,,,,,,,,,,,,,,,,,,,,,,,,,,
"University of Tartu","Тартуский университет","Ülikooli 18, 50090 Tartu, Estonia",26.71993,58.38107,"https://en.wikipedia.org/wiki/University_of_Tartu","tartu_university.png","Confirmed by instructor",,,,,,,,,,,,,,,,,,,,,,,,,,,,,,,,,,,,,,,,,,,,,,,,,,,,,,,,,,,,,,,,
"University of Tokyo","Токийский университет","7 Chome-3-1 Hongo, Bunkyo, Tokyo 113-8654, Japan",139.759795,35.7126818,"https://en.wikipedia.org/wiki/University_of_Tokyo","university_tokyo.png","Confirmed by instructor",,,,,,,,,,,,,,,,,,,,,,,,,,,,,,,,,,,,,,,,,,,,,,,,,,,,,,,,,,,,,,,,
"University of Toronto","Университет Торонто","27 King's College Cir, Toronto, ON M5S, Canada",-79.39605,43.66095,"https://en.wikipedia.org/wiki/University_of_Toronto","university_toronto.png","Confirmed by instructor","http://politics.utoronto.ca/wp-content/uploads/syllabus/1415_pol2337h1f_l0101.pdf","Government, law and Politics in Russia","<a href=""https://books.google.ru/books/about/Economic_Crime_in_Russia.html?id=WHMEAQAAIAAJ&redir_esc=y"" target=""_blank"">Volkov 2000</a>","<a href=""http://enforce.spb.ru/products/policy-memo/1701-2010-yanvar"" target=""_blank"">Волков, Панеях и Титаев 2010</a>","<a href=""https://books.google.ru/books?id=6OMPDQAAQBAJ&source=gbs_book_other_versions"" target=""_blank"">Volkov 2002</a>","<a href=""https://www.jstor.org/stable/153859"" target=""_blank"">Volkov 1999</a>","<a href=""http://journals.sagepub.com/doi/abs/10.1177/0032329200028004003"" target=""_blank"">Volkov 2000</a>","<a href=""https://epay.newschool.edu/C21120_ustores/web/product_detail.jsp?PRODUCTID=1484"" target=""_blank"">Volkov 2000</a>","<a href=""http://www.palgrave.com/us/book/9781403964496"" target=""_blank"">Volkov 2004</a>","<a href=""http://enforce.spb.ru/products/policy-memo/5735-2012-iyul"" target=""_blank"">Volkov et al. 2012</a>","<a href=""https://books.google.ru/books/about/Bribery_and_Blat_in_Russia.html?id=fcplQgAACAAJ&redir_esc=y"" target=""_blank"">Volkov 2000</a>","http://munkschool.utoronto.ca/profile/schatz-edward/","Edward Schatz","<a href=""http://www.nlobooks.ru/node/5409"" target=""_blank"">Abashin 2015</a>","<a href=""http://www.cornellpress.cornell.edu/book/?GCOI=80140100364090"" target=""_blank"">Volkov 2002</a>","<a href=""http://www.sciencedirect.com/science/article/pii/S0967067X12000517"" target=""_blank"">Gel'man 2012</a>",,,,,,,,,,,,,,,,,,,,,,,,,,,,,,,,,,,,,,,,,,,,,,,,
"University of Warwick","Университет Уорика","Coventry CV4 7AL, UK",-1.56491,52.38604,"https://en.wikipedia.org/wiki/University_of_Warwick","university_warwick.png","Confirmed by university website","https://www2.warwick.ac.uk/fac/soc/sociology/prospective/pgtstudy/modules/so947/","Sociology of Modernity","<a href=""https://books.google.com/books?id=PbQqdOu3xJUC&printsec=frontcover&dq=The+collective+and+the+individual+in+Russia:+a+study+of+practices&hl=en&sa=X&ved=0ahUKEwjtjvO8zPbSAhVKD5oKHX3gDHYQ6AEIHDAA"" target=""_blank"">Kharkhordin 1999</a>",,,,,,,,,"http://www2.warwick.ac.uk/fac/soc/sociology/staff/wrightc/home/teaching/ipg/","International Perspectives on Gender","<a href=""http://journals.sagepub.com/doi/abs/10.1177/1350506807081884"" target=""_blank"">Rotkirch, Temkina & Zdravomyslova 2007</a>",,,,,,,,,,,,,,,,,,,,,,,,,,,,,,,,,,,,,,,,,,,,,,,,,,
"University of Washington","Университет Вашингтона","225 Schmitz Hall, Seattle, WA 98195",-122.30673,47.65027,"https://en.wikipedia.org/wiki/University_of_Washington","university_washington.png","Confirmed by instructor",,,,,,,,,,,,,,,,,,,,,,,,,,,,,,,,,,,,,,,,,,,,,,,,,,,,,,,,,,,,,,,,
"University of Wisconsin-Madison","Университет Висконсин-Мэдисон","Union South 1308 W. Dayton St., Madison, WI 53715",-89.40788,43.07136,"https://en.wikipedia.org/wiki/University_of_Wisconsin–Madison","university_wisconsin-madison.png","Confirmed by university website","https://polisci.wisc.edu/sites/polisci.wisc.edu/files/documents/syllabi/PS%20534.pdf","Socialism and Transitions to the Market","<a href=""https://www.jstor.org/stable/153859"" target=""_blank"">Volkov 1999</a>",,,,,,,,,"https://history.wisc.edu/prelim_imperialrussia_holzman.pdf","Modern Europe. Imperial Russia Reading List","<a href=""https://books.google.ru/books/about/The_Reforms_of_Peter_the_Great.html?id=B9odY-NlXwwC&redir_esc=y"" target=""_blank"">Anisimov 1993</a>","<a href=""https://www.amazon.com/Empress-Elizabeth-Russia-1741-1761-Russian/dp/0875691404"" target=""_blank"">Anisimov 1995</a>",,,,,,,,,,,,,,,,,,,,,,,,,,,,,,,,,,,,,,,,,,,,,,,,,
"University of Wisconsin-Milwaukee","Университет Висконсин-Милуоки","2442 E. Kenwood Blvd., Milwaukee, WI 53211",-87.8798869,43.0748149,"https://en.wikipedia.org/wiki/University_of_Wisconsin–Milwaukee","university_wisconsin-milwaukee.png","Confirmed by instructor",,,,,,,,,,,,,,,,,,,,,,,,,,,,,,,,,,,,,,,,,,,,,,,,,,,,,,,,,,,,,,,,
"Virginia Commonwealth University","Университет Содружества Вирджинии","907 Floyd Ave, Richmond, VA 23284",-77.45348,37.54651,"https://en.wikipedia.org/wiki/Virginia_Commonwealth_University","virginia_commonwealth_university.png","Confirmed by instructor",,,,,,,,,,,,,,,,,,,,,,,,,,,,,,,,,,,,,,,,,,,,,,,,,,,,,,,,,,,,,,,,
"Wesleyan University","Уэслианский университет","45 Wyllys Ave, Middletown, CT 06459",-72.6566849,41.5570602,"https://en.wikipedia.org/wiki/Wesleyan_University","wesleyan_university.png","Confirmed by university website","http://prutland.faculty.wesleyan.edu/files/2015/08/GOVT-274-Russian-politics.pdf","Russian Politics","<a href=""https://www.jstor.org/stable/153859"" target=""_blank"">Volkov 1999</a>","<a href=""http://kommunalka.colgate.edu/"" target=""_blank"">Utekhin Kommunalka""</a>",,,,,,,,,,,,,,,,,,,,,,,,,,,,,,,,,,,,,,,,,,,,,,,,,,,,,,,,,,,,
"William and Mary College","Уильям и Мэри колледж","Sadler Center, 200 Stadium Dr, Williamsburg, VA 23185",-76.7136292,37.2719876,"https://en.wikipedia.org/wiki/College_of_William_%26_Mary","william_mary_college.png","Confirmed by instructor","http://www.wm.edu/as/government/faculty-directory/pickering_p.php","Russian/Post-Soviet Politics","<a href=""https://books.google.ru/books/about/Developments_in_Russian_Politics_8.html?id=z0-xoAEACAAJ&redir_esc=y"" target=""_blank"">Gel'man 2014</a>",,,,,,,,,,,,,,,,,,,,,,,,,,,,,,,,,,,,,,,,,,,,,,,,,,,,,,,,,,,,,
"Yale University","Йельский университет","Yale University, New Haven, CT 06520",-72.92888,41.31017,"https://en.wikipedia.org/wiki/Yale_University","yale_university.png","Confirmed by instructor","http://slavic.yale.edu/sites/default/files/files/RUSS%20682%20-%20syllabus.pdf","Russian Avant-garde Poetry Graduate Seminar","<a href=""http://www.bloomsbury.com/us/negative-revolution-9781441156129/"" target=""_blank"">Magun 2013</a>",,,,,,,,,"https://campuspress.yale.edu/interasia/files/2015/09/Islam-and-Empire-in-Central-South-Asia-Pickett-Yale-InterAsia-Fall-2015-2kom79h.pdf","Islam and Empire in Central / South Asia","<a href=""https://www.routledge.com/Asiatic-Russia-Imperial-Power-in-Regional-and-International-Contexts/Uyama/p/book/9780415615372"" target=""_blank"">Abashin 2012</a>",,,,,,,,,,,,,,,,,,,,,,,,,,,,,,,,,,,,,,,,,,,,,,,,,,
"National University of Ostroh Academy","Острожская академия","Seminarska St, 2, Ostroh, Rivnens'ka oblast, Ukraine, 35800",26.5135599,50.32907,"https://en.wikipedia.org/wiki/National_University_Ostroh_Academy","ostroh_academy.png","Confirmed by instructor",,,,,,,,,,,,,,,,,,,,,,,,,,,,,,,,,,,,,,,,,,,,,,,,,,,,,,,,,,,,,,,,
"The Graduate Insitute of International and Development Studies","Женевский институт международных исследований и развития","Maison de la Paix, Chemin Eugène-Rigot 2, 1202 Genève, Switzerland",6.1413801,46.2207906,"https://en.wikipedia.org/wiki/Graduate_Institute_of_International_and_Development_Studies","graduate_institute.png","Confirmed by university website","http://graduateinstitute.ch/files/live/sites/iheid/files/sites/cours2016-2017/syllabi/MINT025.pdf","State-Building and War-Making in the Developing World","<a href=""http://www.cornellpress.cornell.edu/book/?GCOI=80140100364090"" target=""_blank"">Volkov 2002</a>",,,,,,,,,,,,,,,,,,,,,,,,,,,,,,,,,,,,,,,,,,,,,,,,,,,,,,,,,,,,,
"Higher School of Economics","Высшая школа экономики в Санкт-Петербурге","190008, Sankt-Peterburg, ul. Soyuz Pechatnikov, d. 16",30.2901386,59.9231245,"https://ru.wikipedia.org/wiki/Высшая_школа_экономики","higher_school_of_economics.png","Confirmed by university website","https://spb.hse.ru/ba/political/courses/184780966.html","Interest Groups in Decision Making Process","<a href=""http://old.eu.spb.ru/socio/regions/polit_text.pdf"" target=""_blank"">Голосов 2001</a>","<a href=""https://eu.spb.ru/images/M_center/M_41_15.pdf"" target=""_blank"">Гельман 2015</a>","<a href=""http://www.palgrave.com/de/book/9780230299733"" target=""_blank"">Magun 2011</a>","<a href=""https://www2.gwu.edu/~ieresgwu/assets/docs/demokratizatsiya%20archive/GWASHU_DEMO_21_4/142R38863L666177/142R38863L666177.pdf"" target=""_blank"">Golosov 2011</a>",,,,,,"https://www.hse.ru/data/2016/10/14/1117096736/program-1493251344-rOfuz6y02M.pdf","Категории политической науки","<span>Голосов, Мелешкина ""Политические партии и выборы"" 2001</span>","<span>Голосов ""Демократия в России: Инструкция по сборке"" 2012</span>","<a href=""http://old.eu.spb.ru/socio/regions/polit_text.pdf"" target=""_blank"">Голосов 2001</a>",,,,,"https://www.hse.ru/data/2016/12/22/1117095403/program-718102773-LggmDxGnXR.pdf","Contemporary Russian Politics","<a href=""https://books.google.ru/books?id=1QDzCAAAQBAJ"" target=""_blank"">Gel'man 2015</a>","<a href=""https://eu.spb.ru/images/pss_dep/gelman_Political_Opposition_in_Russia.pdf"" target=""_blank"">Gel'man 2005</a>","<a href=""https://books.google.ca/books?id=8zSt47-06tAC&lpg=PP1&hl=ru&pg=PP1#v=onepage&q&f=false"" target=""_blank"">Golosov 2004</a>","<a href=""http://www.tandfonline.com/doi/abs/10.1080/09668136.2011.566427"" target=""_blank"">Golosov 2011</a>","<a href=""https://www.jstor.org/stable/153859"" target=""_blank"">Volkov 1999</a>",,,,"https://www.hse.ru/data/2017/02/08/1117096732/program-720375236-EvZ7JwzLUi.pdf","История политических, правовых и социальных учений","<a href=""http://www.nlobooks.ru/node/549"" target=""_blank"">Магун 2011</a>","<a href=""http://eupress.ru/books/index/item/id/102"" target=""_blank"">Каплун 2011</a>",,,,,,,,,,,,,,,,,,,,,,,,,,,,,,
"University of Notre Dame","Университет Нотр-Дам","Notre Dame, Indiana 46556",-86.2467862,41.702995,"https://en.wikipedia.org/wiki/University_of_Notre_Dame","university_notre_dame.png","Confirmed by instructor","https://susannewengle.nd.edu/teaching/","Susanne Wengle","<a href=""http://www.cornellpress.cornell.edu/book/?GCOI=80140100364090"" target=""_blank"">Volkov 2002</a>",,,,,,,,,"https://politicalscience.nd.edu/assets/51662/sp12_pols_undergraduate_course_descriptions.pdf","Elections in Comparative Perspective","<a href=""https://www.amazon.com/Politics-Sub-National-Authoritarianism-Russia-Post-Soviet/dp/0754678881"" target=""_blank"">Gel'man & Ross 2010</a>",,,,,,,,,,,,,,,,,,,,,,,,,,,,,,,,,,,,,,,,,,,,,,,,,,
"Ben Gurion University of the Negev","Университет Бен Гуриона в Негеве","Be'er Sheva, 8499000, Израиль, 653",34.801511,31.262192,"https://en.wikipedia.org/wiki/Ben-Gurion_University_of_the_Negev","ben-gurion_university.png","Confirmed by university website","http://in.bgu.ac.il/humsos/soc-ant/en/coursestaught/Russia%20in%20Israel-%20People,%20Culture%20and%20Ideology.pdf","Russia in Israel: People, Culture and Ideology","<a href=""https://books.google.com/books?id=r7gb6tYaSQUC&printsec=frontcover&dq=Stalinism:+New+Directions&hl=en&sa=X&ved=0ahUKEwj23dXRzvbSAhUiG5oKHViWDnIQ6AEIHDAA"" target=""_blank"">Volkov 2000</a>",,,,,,,,,"http://in.bgu.ac.il/humsos/soc-ant/en/coursestaught/Travelling%20Ideas-%20Study%20of%20Knowledge%20and%20Cultural%20Change.pdf","Travelling Ideas: Study of Knowledge and Cultural Change","<a href=""http://sk.sagepub.com/books/global-modernities/n12.xml"" target=""_blank"">Kharkhordin 1995</a>",,,,,,,,,,,,,,,,,,,,,,,,,,,,,,,,,,,,,,,,,,,,,,,,,,
"University of East Anglia","Университет Восточной Англии","University of East Anglia, Norwich Research Park, Norwich, NR4 7TJ, UK",1.241667,52.621667,"https://en.wikipedia.org/wiki/University_of_East_Anglia","university_east_anglia.png","Confirmed by university website","https://portal.uea.ac.uk/documents/6207125/8726940/FOI_13-165-Appendix+A_Data+file.pdf/a775b975-9c35-4b33-9bab-c9e8f03f1ffb","Stalin and Stalinism: the USSR 1924-1953","<a href=""https://books.google.com/books?id=r7gb6tYaSQUC&printsec=frontcover&dq=Stalinism:+New+Directions&hl=en&sa=X&ved=0ahUKEwj23dXRzvbSAhUiG5oKHViWDnIQ6AEIHDAA"" target=""_blank"">Volkov 2000</a>",,,,,,,,,"https://portal.uea.ac.uk/documents/6207125/8726940/FOI_13-165-Appendix+A_Data+file.pdf/a775b975-9c35-4b33-9bab-c9e8f03f1ffb","Governance, Democracy and Development","<a href=""https://books.google.ru/books?id=r7gb6tYaSQUC&lpg=PP1&hl=ru&pg=PP1#v=onepage&q&f=false"" target=""_blank"">Volkov 2000</a>",,,,,,,,,,,,,,,,,,,,,,,,,,,,,,,,,,,,,,,,,,,,,,,,,,
"University of Cape Town","Университет Кейптауна","University of Cape Town, Private Bag X3, Rondebosch 7701, South Africa",18.4580094,-33.9650252,"https://en.wikipedia.org/wiki/University_of_Cape_Town","university_cape_town.png","Confirmed by university website","http://www.savi.uct.ac.za/sites/default/files/image_tool/images/168/PBL5660S%2BCourse%2BOutline%2B2015.pdf","Issues in Crime & Justice: Organised Non-state Violence in Africa","<a href=""http://www.cornellpress.cornell.edu/book/?GCOI=80140100364090"" target=""_blank"">Volkov 2002</a>",,,,,,,,,,,,,,,,,,,,,,,,,,,,,,,,,,,,,,,,,,,,,,,,,,,,,,,,,,,,,
"University of Kent","Университет Кента","The University of Kent, Canterbury, Kent, CT2 7NZ",1.069,51.297,"https://en.wikipedia.org/wiki/University_of_Kent","university_kent.png","Confirmed by university website","https://www.kent.ac.uk/socsci/documents/module-specs/2017-18/anthropology/se878.doc","Advanced Topics in Contemporary Violence and Conflict","<a href=""http://www.cornellpress.cornell.edu/book/?GCOI=80140100364090"" target=""_blank"">Volkov 2002</a>",,,,,,,,,"https://www.kent.ac.uk/courses/modules/module/PO579#preliminary_reading","Post Communist Russia","<a href=""https://books.google.ru/books/about/Authoritarian_Russia.html?id=1QDzCAAAQBAJ&redir_esc=y"" target=""_blank"">Gel'man 2015</a>",,,,,,,,,,,,,,,,,,,,,,,,,,,,,,,,,,,,,,,,,,,,,,,,,,
"Carleton University","Карлтонский университет","1125 Colonel By Drive Ottawa, Ontario, Canada K1S 5B6",-75.6976,45.3831,"https://en.wikipedia.org/wiki/Carleton_University","carleton_university.png","Confirmed by university website","http://carleton.ca/eurus/wp-content/uploads/EURR-4203-5203-Winter-2014.pdf","Imperial and Soviet Russia","<a href=""https://books.google.ru/books?id=PbQqdOu3xJUC&lpg=PP1&hl=ru&pg=PP1#v=onepage&q&f=false"" target=""_blank""> Kharkhordin 1999</a>","<a href=""https://books.google.ru/books/about/The_Ukrainian_Question.html?id=gzOpCdnnliwC&redir_esc=y"" target=""_blank"">Miller 2003</a>","<a href=""http://www.nlobooks.ru/node/238"" target=""_blank"">Миллер и Долбилов 2007</a>",,,,,,,"http://carleton.ca/eurus/wp-content/uploads/EURR-4202A-5202F-Nazism-and-Stalinism-Fall-2013-final-1.pdf","Special Topics in Russian, Eurasian and Transition Studies: Nazism and Stalinism","<a href=""https://carlbeckpapers.pitt.edu/ojs/index.php/cbp/article/view/79"" target=""_blank"">Lomagin 1998</a>",,,,,,,"http://carleton.ca/eurus/wp-content/uploads/W17-EURR-4303-5303-J-Casteel.pdf","Contemporary Europe: From Postwar to the European Union","<a href=""http://journals.sagepub.com/doi/abs/10.1177/0888325403255305"" target=""_blank"">Vujacic 2003</a>",,,,,,,,"http://carleton.ca/eurus/wp-content/uploads/EURR-5002-Course-outline.pdf","Post-Soviet States and Societies","<a href=""http://www.tandfonline.com/doi/abs/10.1080/09668130802161165"" target=""_blank"">Gel'man 2008</a>","<a href=""https://eu.spb.ru/images/pss_dep/gelman_Political_Opposition_in_Russia.pdf"" target=""_blank"">Gel'man 2005</a>","<a href=""http://www.tandfonline.com/doi/abs/10.1080/09668136.2014.967553"" target=""_blank"">Golosov 2013</a>",,,,,,,,,,,,,,,,,,,,,,,,,,,,,
"University of Manchester","Университет Манчестера","Oxford Rd, Manchester M13 9PL, England, United Kingdom",-2.233611,53.465556,"https://en.wikipedia.org/wiki/University_of_Manchester","university_manchester.png","Confirmed by university website","http://soyuz.americananthro.org/wp-content/uploads/2012/02/syllabus_Reeves_afterlives_of_soviet_socialism.pdf","Afterlives of Soviet Socialism","<a href=""https://books.google.ru/books?id=PbQqdOu3xJUC&lpg=PP1&hl=ru&pg=PP1#v=onepage&q&f=false"" target=""_blank""> Kharkhordin 1999</a>","<a href=""https://books.google.ru/books?id=r7gb6tYaSQUC&lpg=PP1&hl=ru&pg=PP1#v=onepage&q&f=false"" target=""_blank"">Volkov 2000</a>",,,,,,,,,,,,,,,,,,,,,,,,,,,,,,,,,,,,,,,,,,,,,,,,,,,,,,,,,,,,
"University of Rochester","Университет Рочестера","Rochester, NY 14611, USA",-77.628333,43.128333,"https://en.wikipedia.org/wiki/University_of_Rochester","university_rochester.png","Confirmed by university website","https://www.sas.rochester.edu/his/people/faculty/borus_daniel/assets/pdf/Borus%20-%20History%20of%20Psychology%20TRANTL.pdf","History of Psychology Research Field Reading List","<a href=""https://books.google.ru/books?id=PbQqdOu3xJUC&lpg=PP1&hl=ru&pg=PP1#v=onepage&q&f=false"" target=""_blank""> Kharkhordin 1999</a>",,,,,,,,,,,,,,,,,,,,,,,,,,,,,,,,,,,,,,,,,,,,,,,,,,,,,,,,,,,,,
"Makhambet Utemisov West Kazakhstan State University","Западно-Казахстанский государственный университет имени Махамбета Утемисова","Dostyk-Druzhby Avenue 162, Uralsk, Kazakhstan",51.3759552,51.1932214,"https://wksu.kz/en/","makhambet_utemisov.png","Confirmed by university website","https://inside.wksu.kz/dmdocuments/%D0%A1%D0%B0%D1%8F%D1%81%D0%B0%D1%82%D1%82%D0%B0%D0%BD%D1%83.pdf","Political Science","<a href=""http://www.politstudies.ru/article/3229"" target=""_blank"">Гельман 2003</a>","<a href=""http://www.politstudies.ru/index.php?id=2722&page_id=453"" target=""_blank"">Гельман 2000</a>",,,,,,,,,,,,,,,,,,,,,,,,,,,,,,,,,,,,,,,,,,,,,,,,,,,,,,,,,,,,
"Université du Québec à Montréal","Университет Квебека в Монреале","405 Rue Sainte-Catherine Est, Montréal, QC H2L 2C4, Canada",-73.560278,45.513889,"https://en.wikipedia.org/wiki/Université_du_Québec_à_Montréal","university_quebec.png","Confirmed by university website","https://politique.uqam.ca/upload/files/POL4035-20-H17-Mandel.pdf","Systèmes Politiques Étrangers: l'URSS et ses États Successeurs","<a href=""https://books.google.com/books?id=1QDzCAAAQBAJ"" target=""_blank"">Gel'man 2015</a>",,,,,,,,,,,,,,,,,,,,,,,,,,,,,,,,,,,,,,,,,,,,,,,,,,,,,,,,,,,,,
"Nord University","Северный университет","Universitetsalléen 11, 8049 Bodø, Norway",14.560248,67.289081,"https://en.wikipedia.org/wiki/Nord_University","nord_university.png","Confirmed by university website","https://www.nord.no/en/Student/past-study-plans/Documents/FSV%202013H/EN%20-%20Autumn%202013%20-%20Master%20in%20Social%20Work%20-%20with%20a%20Comparative%20Perspective.pdf","Social Policies in the High North","<a href=""https://www.novapublishers.com/catalog/product_info.php?products_id=7503"" target=""_blank"">Gel'man 2008</a>",,,,,,,,,"https://www.nord.no/en/studies/programmes-courses/find-programmes-courses/2017h/PDF%20Documents/BACPS.pdf","Peoples and Cultures of the Circumpolar World","<a href=""http://www.siberian-studies.org/publications/PDF/sikliarskaya.pdf"" target=""_blank"">Liarskaya 2013</a>","<a href=""http://www.siberian-studies.org/publications/PDF/sikdudeck.pdf"" target=""_blank"">Dudeck 2013</a>",,,,,,,,,,,,,,,,,,,,,,,,,,,,,,,,,,,,,,,,,,,,,,,,,
"University of Cambridge","Кембриджский университет","The Old Schools, Trinity Ln, Cambridge CB2 1TN, UK",0.117222,52.205278,"https://en.wikipedia.org/wiki/University_of_Cambridge","cambridge_university.png","Confirmed by university website","http://www.mml.cam.ac.uk/sites/default/files/sl12_handbook_15-16_final.pdf","Socailist Russia 1917-1991","<a href=""https://books.google.ru/books?id=Fp30AwAAQBAJ&lpg=PP1&pg=PP1#v=onepage&q&f=false"" target=""_blank"">Gel'man, Travin & Marganiya 2014</a>",,,,,,,,,,,,,,,,,,,,,,,,,,,,,,,,,,,,,,,,,,,,,,,,,,,,,,,,,,,,,
"University of Edinburgh","Эдинбургский университет","Old College, South Bridge, Edinburgh EH8 9YL, UK",-3.187194,55.947389,"https://en.wikipedia.org/wiki/University_of_Edinburgh","university_edinburgh.png","Confirmed by university website","http://www.sps.ed.ac.uk/__data/assets/pdf_file/0003/146271/DCP_Course_Guide_2013-14.pdf","Democracy in Comparative Perspective","<a href=""http://www.tandfonline.com/doi/abs/10.1080/09668130802161165"" target=""_blank"">Gel'man 2008</a>","<a href=""http://www.tandfonline.com/doi/abs/10.2747/1060-586X.21.3.226"" target=""_blank"">Gel'man 2005</a>","<a href=""http://www.tandfonline.com/doi/abs/10.2753/PPC1075-8216600201?src=recsys"" target=""_blank"">Gel'man 2014</a>",,,,,,,"http://www.drps.ed.ac.uk/16-17/dpt/cxplit10086.htm","Democratisation and Europeanisation in Central and Eastern Europe","<a href=""http://www.tandfonline.com/doi/abs/10.1080/09668130802161165"" target=""_blank"">Gel'man 2008</a>",,,,,,,"http://www.sps.ed.ac.uk/__data/assets/pdf_file/0019/220708/Contemporary_Russian_Politics_PLIT10048.pdf","Contemporary Russian Politics","<a href=""https://books.google.ru/books/about/Authoritarian_Russia.html?id=1QDzCAAAQBAJ&redir_esc=y"" target=""_blank"">Gel'man 2015</a>","<a href=""http://journals.sagepub.com/doi/pdf/10.1177/0192512107085610"" target=""_blank"">Gel'man 2008</a>","<a href=""http://www.tandfonline.com/doi/abs/10.1080/21599165.2014.899211"" target=""_blank"">Golosov 2014</a>","<a href=""http://www.tandfonline.com/doi/abs/10.1080/09668130802161165"" target=""_blank"">Gel'man 2008</a>","<a href=""http://www.tandfonline.com/doi/abs/10.2753/PPC1075-8216600201"" target=""_blank"">Gel'man 2013</a>",,,,,,,,,,,,,,,,,,,,,,,,,,,,,,,,,,,,,
"University of Texas at Austin","Техасский университет в Остине","Austin, TX 78712, USA",-97.735,30.285,"https://en.wikipedia.org/wiki/University_of_Texas_at_Austin","university_texas_austin.png","Confirmed by university website","https://liberalarts.utexas.edu/files/mKGsoqySqQ","Political Parties and Party Systems","<a href=""http://journals.sagepub.com/doi/pdf/10.1177/0010414003256115"" target=""_blank"">Golosov 2003</a>",,,,,,,,,,,,,,,,,,,,,,,,,,,,,,,,,,,,,,,,,,,,,,,,,,,,,,,,,,,,,
"Louisiana State University","Университет штата Луизиана","Baton Rouge, LA 70803, USA",-91.1783,30.4145,"https://en.wikipedia.org/wiki/Louisiana_State_University","louisiana_state_university.png","Confirmed by university website","http://www.lsu.edu/hss/polisci/courses/courses_syllabi/7972kerevel-spring2017.pdf","Comparative Political Institutions","<a href=""http://journals.sagepub.com/doi/abs/10.1177/1354068809339538"" target=""_blank"">Golosov 2010</a>",,,,,,,,,,,,,,,,,,,,,,,,,,,,,,,,,,,,,,,,,,,,,,,,,,,,,,,,,,,,,
"State University of New York at Binghamton","Государственный университет Нью-Йорка в Бингемтоне","4400 Vestal Parkway East, Binghamton, NY 13902, USA",-75.967,42.0888,"https://en.wikipedia.org/wiki/Binghamton_University","binghamton_university.png","Confirmed by university website","https://www.binghamton.edu/cce/faculty/engaged-teaching/course-designation/hist381d-borderlands-syllabus.pdf","Borderlands Of Eastern Europe","<a href=""https://books.google.ru/books?id=TzMQvgAACAAJ&hl=en"" target=""_blank"">Sezneva 2003</a>",,,,,,,,,,,,,,,,,,,,,,,,,,,,,,,,,,,,,,,,,,,,,,,,,,,,,,,,,,,,,
"Viadrina European University","Европейский университет Виадрины","Große Scharrnstraße 59, 15230 Frankfurt (Oder), Germany",14.553889,52.342222,"https://en.wikipedia.org/wiki/Viadrina_European_University","viadrina_university.png","Confirmed by university website","https://www.kuwi.europa-uni.de/en/lehrstuhl/vs/politik3/Lehre-SS-14/index.html","Masculinities and Men’s Studies in Eastern Europe","<a href=""http://www.indepsocres.spb.ru/zdrav1.htm"" target=""_blank"">Zdravomyslova & Chikadze 2000</a>",,,,,,,,,"https://www.kuwi.europa-uni.de/en/lehrstuhl/vs/politik3/Lehre-SS-14/index.html","Feminism in Eastern Europe: between Global and Local","<a href=""http://journals.sagepub.com/doi/abs/10.1177/0011392113515566"" target=""_blank"">Zdravomyslova & Temkina 2014</a>","<a href=""http://isa-global-dialogue.net/the-gender-question-in-contemporary-russia/"" target=""_blank"">Temkina 2012</a>","<a href=""https://link.springer.com/article/10.1023/A:1021857831011"" target=""_blank"">Temkina & Zdravomyslova 2003</a>",,,,,,,,,,,,,,,,,,,,,,,,,,,,,,,,,,,,,,,,,,,,,,,,
"University of Waterloo
","Университет Ватерлоо","200 University Ave W, Waterloo, ON N2L 3G1, Canada",-80.54,43.468889,"https://en.wikipedia.org/wiki/University_of_Waterloo","university_waterloo.png","Confirmed by university website","https://uwaterloo.ca/political-science/sites/ca.political-science/files/uploads/files/355-outline-w2015.pdf","Politics: Soviet Successor States (Russia and Its Neighbours)","<a href=""https://link.springer.com/article/10.1057/ip.2012.13"" target=""_blank"">Lomagin 2012</a>",,,,,,,,,,,,,,,,,,,,,,,,,,,,,,,,,,,,,,,,,,,,,,,,,,,,,,,,,,,,,
"University of Miami","Университет Майами","5202 University Dr, Coral Gables, FL 33146, USA",-80.279267,25.721644,"https://en.wikipedia.org/wiki/University_of_Miami","university_miami.png","Confirmed by university website","https://www.as.miami.edu/media/college-of-arts-and-sciences/content-assets/political-science/docs/syllabi/INS%20310.%20POL%20391%20Fall%202013.pdf","From the Soviet Union to the Eurasian Union","<a href=""https://books.google.ru/books?id=c5W1CwAAQBAJ&lpg=PA1&pg=PT116#v=onepage&q&f=false"" target=""_blank"">Lomagin 2014</a>",,,,,,,,,,,,,,,,,,,,,,,,,,,,,,,,,,,,,,,,,,,,,,,,,,,,,,,,,,,,,
"University of Leicester","Университет Лейчестера","University Rd, Leicester LE1 7RH, UK",-1.124444,52.621389,"https://en.wikipedia.org/wiki/University_of_Leicester","university_leicester.png","Confirmed by university website","http://readinglists.le.ac.uk/lists/4A679241-022E-DB33-87C5-6099339BD9AB.html#section-837B46AE-9002-9FB6-84D4-2CB20428DA78","Rise and Fall of the Soviet Union","<a href=""https://books.google.ru/books/about/The_Leningrad_Blockade_1941_1944.html?id=-g2b__W4cQAC&redir_esc=y"" target=""_blank"">Lomagin & Bidlack 2012</a>",,,,,,,,,,,,,,,,,,,,,,,,,,,,,,,,,,,,,,,,,,,,,,,,,,,,,,,,,,,,,
"Freie Universität Berlin","Свободный университет Берлина","Kaiserswerther Str. 16-18, 14195 Berlin, Germany",13.290556,52.453056,"https://en.wikipedia.org/wiki/Free_University_of_Berlin","freie_universitat_berlin.png","Confirmed by university website","http://www.fu-berlin.de/en/sites/fubest/prog/courses/syllabi/Syllabus_FU-BEST_30.pdf","Energizing Europe: 21st Century Renewable & Fossil Transformations","<a href=""http://gpf-europe.com/forum/?blog=energy&id=157"" target=""_blank"">Sharples & Judge 2014</a>",,,,,,,,,,,,,,,,,,,,,,,,,,,,,,,,,,,,,,,,,,,,,,,,,,,,,,,,,,,,,
"Mykolas Romeris University","Университет Миколаса Ромериса","Ateities g. 20, Vilnius 08303, Lithuania",25.258889,54.733889,"https://en.wikipedia.org/wiki/Mykolas_Romeris_University","mykolas_romeris_university.png","Confirmed by university website","https://www.mruni.eu/mru_lt_dokumentai/katedros/politikos_mokslu_katedra/Naujos%20programos%20ir%20planai/civil%20society%20for%20erasmus.doc","Civil Society Building in Central and Eastern Europe","<a href=""http://www.tandfonline.com/doi/abs/10.1080/714000120""  target=""_blank"">Gel'man 2003</a>",,,,,,,,,,,,,,,,,,,,,,,,,,,,,,,,,,,,,,,,,,,,,,,,,,,,,,,,,,,,,
"S.Toraighyrov Pavlodar State University","Павлодарский государственный университет им. С. Торайгырова","140000, Lomov St 64, Pavlodar 140000, Kazakhstan",76.96839,52.26595,"https://ru.wikipedia.org/wiki/Павлодарский_государственный_университет","pavlodar_university.png","Confirmed by university website","http://psu.kz/arm/upload/umk/18229.doc","Мировая политика и международные отношения","<span>Ломагин ""Международные организации"" 1999</span>",,,,,,,,,,,,,,,,,,,,,,,,,,,,,,,,,,,,,,,,,,,,,,,,,,,,,,,,,,,,,
"Central European University","Центрально-Европейский университет
","Budapest, Nádor u. 9, 1051 Hungary",19.049722,47.500556,"https://en.wikipedia.org/wiki/Central_European_University","central_european_university.png","Confirmed by university website","http://web.ceu.hu/crc/Syllabi/97-98/Sociology/socinst.html","Sociology of Institutional Change","<a href=""https://books.google.ru/books?id=PbQqdOu3xJUC&lpg=PP1&hl=ru&pg=PP1#v=onepage&q&f=false"" target=""_blank""> Kharkhordin 1999</a>",,,,,,,,,"https://courses.ceu.edu/sites/courses.ceu.hu/files/attachment/course/3850/russianforeignpolicy.pdf","Russian Foreign Policy","<a href=""https://muse.jhu.edu/article/623991"" target=""_blank"">Magun 2016</a>",,,,,,,,,,,,,,,,,,,,,,,,,,,,,,,,,,,,,,,,,,,,,,,,,,
"Venice International University","Венецианский международный университет","San Servolo, 30135 Venezia, Italy",12.357222,45.418611,"https://en.wikipedia.org/wiki/Venice_International_University","venice_international_university.png","Confirmed by university website","http://www.univiu.org/past-semesters/courses?id_corso=937","Italy and Venice in Russian Art and Architecture","<a href=""https://books.google.ru/books/about/Five_Empresses.html?id=14XuJKb14BYC&redir_esc=y"" target=""_blank"">Anisimov 2004</a>",,,,,,,,,,,,,,,,,,,,,,,,,,,,,,,,,,,,,,,,,,,,,,,,,,,,,,,,,,,,,
"California State University, San Bernardino","Университет штата Калифорния, Сан-Бернардино","5500 University Pkwy, San Bernardino, CA 92407, USA",-117.324,34.1831,"https://en.wikipedia.org/wiki/California_State_University,_San_Bernardino","california_state_university_san_bernardino.png","Confirmed by university website","http://history.csusb.edu/facultystaff/history403/documents/403%20Reading%20List.pdf","Absolutism and Enlightenment","<a href=""https://books.google.ru/books/about/Five_Empresses.html?id=14XuJKb14BYC&redir_esc=y"" target=""_blank"">Anisimov 2004</a>","<a href=""https://books.google.ru/books/about/The_Reforms_of_Peter_the_Great.html?id=B9odY-NlXwwC&redir_esc=y"" target=""_blank"">Anisimov 1993</a>",,,,,,,,,,,,,,,,,,,,,,,,,,,,,,,,,,,,,,,,,,,,,,,,,,,,,,,,,,,,
"KIMEP University","Университет КИМЭП","Abaya ave 2, Almaty 050010, Kazakhstan",76.955278,43.241944,"https://en.wikipedia.org/wiki/KIMEP_University","kimep_university.png","Confirmed by university website","https://www.kimep.kz/international/files/2015/01/Martinez-IRL-3546-Popular-Cultures-of-Central-Asia-Syllabus.pdf","The Politics of Cultures of Central Asia","<a href=""http://connections-qj.org/article/transformation-ethnic-identity-central-asia-case-study-uzbeks-and-tajiks"" target=""_blank"">Abashin 2006</a>",,,,,,,,,,,,,,,,,,,,,,,,,,,,,,,,,,,,,,,,,,,,,,,,,,,,,,,,,,,,,
"American University of Central Asia ","Американский университет в Центральной Азии","7/6 Aaly Tokombayev St, Bishkek 720060, Kyrgyzstan",74.605363,42.87976,"https://en.wikipedia.org/wiki/American_University_of_Central_Asia","american_university_central_asia.png","Confirmed by university website","http://elibrary.auca.kg:8080/dspace/bitstream/123456789/1385/1/peoples%20and%20Cultures%20of%20CA%20syllabus%20Spring%2020111.pdf","Peoples and Cultures of Central Asia","<span>Abashin ""Tea in Central Asia""</span>",,,,,,,,,,,,,,,,,,,,,,,,,,,,,,,,,,,,,,,,,,,,,,,,,,,,,,,,,,,,,
"Paris Institute of Political Studies","Парижский институт политических исследований","27 Rue Saint-Guillaume, 75007 Paris, France",2.328469,48.854172,"https://en.wikipedia.org/wiki/Sciences_Po","sciences_po.png","Confirmed by university website","http://formation.sciences-po.fr/sites/default/files/enseignement/2014/DAFF2270A_plan.pdf","Sovereignty and Identity in the Former Soviet Space","<a href=""https://www.cambridge.org/core/books/soviet-and-post-soviet-identities/nation-construction-in-post-soviet-central-asia/8C874CAE4F27EFD52FC54B31423E7950"" target=""_blank"">Abashin 2012</a>",,,,,,,,,"http://www.sciencespo.fr/ceri/en/users/gillesfavarelgarrigues","Pouvoir et changement politique en Russie","<a href=""https://books.google.ru/books/about/Authoritarian_Russia.html?id=1QDzCAAAQBAJ&redir_esc=y"" target=""_blank"">Gel'man 2015</a>",,,,,,,"http://www.sciencespo.fr/ceri/en/users/gillesfavarelgarrigues","Corruptions, configurations politico-criminelles, violence extrajudiciaire","<a href=""http://www.cornellpress.cornell.edu/book/?GCOI=80140100364090"" target=""_blank"">Volkov 2002</a>",,,,,,,,,,,,,,,,,,,,,,,,,,,,,,,,,,,,,,,,,
"University of Leipzig","Лейпцигский университет","Augustusplatz 10, 04109 Leipzig, Germany",12.379,51.339,"https://en.wikipedia.org/wiki/Leipzig_University","leipzig_university.png","Confirmed by university website","http://gesi.sozphil.uni-leipzig.de/fileadmin/media/Syllabi_Course_Outlines/VVZ_GS_WS_2016_04.pdf","Soviet Central Asia and its Legacy","<a href=""https://muse.jhu.edu/article/582479/pdf"" target=""_blank"">Abashin 2015</a>",,,,,,,,,,,,,,,,,,,,,,,,,,,,,,,,,,,,,,,,,,,,,,,,,,,,,,,,,,,,,
"Ohio State University","Университет штата Огайо","Columbus, OH 43210, USA",-83.0145,40.004537,"https://en.wikipedia.org/wiki/Ohio_State_University","ohio_state_university.png","Confirmed by university website","http://history.osu.edu/sites/history.osu.edu/files/syllabi/hist594_Papas5_SP08.doc","Modern & Contemporary History of Central Asia","<a href=""https://www.jstor.org/stable/23615310?seq=1#page_scan_tab_contents"" target=""_blank"">Abashin 2005</a>",,,,,,,,,,,,,,,,,,,,,,,,,,,,,,,,,,,,,,,,,,,,,,,,,,,,,,,,,,,,,
"Higher School of Economics","Высшая школа экономики","Krivokolennyy per., 3а, Moskva, 101000",37.6335,55.7615,"https://en.wikipedia.org/wiki/National_Research_University_%E2%80%93_Higher_School_of_Economics","higher_school_of_economics.png","Confirmed by university website","https://www.hse.ru/data/2014/01/16/1289088962/Regionalism%20Syllabus.docx","Региональная политика и политическая регионалистика","<a href=""http://www.ponarseurasia.org/sites/default/files/policy-memos-pdf/pm_0422.pdf"" target=""_blank"">Kurilla 2006</a>",,,,,,,,,"https://www.hse.ru/data/2015/12/11/1097656945/26082015%20Social%20Structure%20in%20Global%20Perspective%20(Kulpina).pdf","Socal Structure Global Perspective","<a href=""https://eu.spb.ru/images/pss_dep/gelman_Studies_of_Political_Elies_in_Russia.pdf"" target=""_blank"">Gel'man & Tarusina 2000</a>",,,,,,,"https://www.hse.ru/edu/courses/184769093","Введение в лингвистику","<a href=""http://elibrary.ru/item.asp?id=25506989"" target=""_blank"">Головко и Вахтин 2005</a>","<a href=""http://humak.ru/%D0%B2%D0%B0%D1%85%D1%82%D0%B8%D0%BD-%D0%BD-%D0%B1-%D0%B3%D0%BE%D0%BB%D0%BE%D0%B2%D0%BA%D0%BE-%D0%B5-%D0%B2-%D1%81%D0%BE%D1%86%D0%B8%D0%BE%D0%BB%D0%B8%D0%BD%D0%B3%D0%B2%D0%B8%D1%81%D1%82%D0%B8/"" target=""_blank"">Вахтин и Головко 2004</a>",,,,,,,"https://www.hse.ru/data/2014/11/09/1103083399/SocCare%20syllabus%20Nov%202014.pdf","The Sociology of Care","<a href=""http://blogs.helsinki.fi/rotkirch/files/2009/03/Making-and-managing-class.pdf"" target=""_blank"">Rotkirch, Tkach & Zdravomyslova 2012</a>",,,,"https://www.hse.ru/data/2016/09/28/1117081157/program-1513172122-HP8FP7RGJ9.pdf","Социокультурная антропология: введение","<a href=""http://www.old.jourssa.ru/2006/3/9aTitaev.pdf"" target=""_blank"">Титаев 2006</a>","<a href=""http://iea-ras.ru/index.php?go=Files&in=view&id=86"" target=""_blank"">Абашин 2011</a>",,,,,,,,,,,,,,,,,,,,,,,,
"Moscow State Institute of International Relations ","Московский государственный институт международных отношений","Prospekt Vernadskogo, 76, Moskva, 119454",37.486944,55.672222,"https://en.wikipedia.org/wiki/Moscow_State_Institute_of_International_Relations","moscow_state_institute_international_relations.png","Confirmed by university website","http://old.mgimo.ru/files/268808/Smaller-and-midlle-range-countries_2014_mag.pdf","Small and Middle-range Countries of Eurasia: Institutions, Cultures and Political Development","<a href=""http://journals.sagepub.com/doi/abs/10.1177/0192512107085610"" target=""_blank"">Gel'man 2008</a>",,,,,,,,,,,,,,,,,,,,,,,,,,,,,,,,,,,,,,,,,,,,,,,,,,,,,,,,,,,,,
"Ural Federal University","Уральский федеральный университет","ul. Mira, 19, Yekaterinburg, Sverdlovskaya oblast', 620002",60.6539,56.844,"https://en.wikipedia.org/wiki/Ural_Federal_University","ural_federal_university.png","Confirmed by university website","http://philos.ispn.urfu.ru/fileadmin/user_upload/site_32_2848/Syllabus.doc","History of Political Concepts","<a href=""https://books.google.ru/books/about/Main_Concepts_of_Russian_Politics.html?id=-Y8NAQAAMAAJ&redir_esc=y"" target=""_blank"">Kharkhordin 2005</a>",,,,,,,,,,,,,,,,,,,,,,,,,,,,,,,,,,,,,,,,,,,,,,,,,,,,,,,,,,,,,
"Kyung Hee University","Университет Кюнг Хи","26 Kyungheedae-ro, Hoegi-dong, Dongdaemun-gu, 서울특별시 South Korea",127.051889,37.59675,"https://en.wikipedia.org/wiki/Kyung_Hee_University","kyung_hee_university.png","Confirmed by university website","http://gsp.khu.ac.kr/academic/syllabi/2011/Global%20Agenda.pdf","Global Agenda","<a href=""http://journal.telospress.com/content/1991/88/120.abstract"" target=""_blank"">Vujacic 1991</a>",,,,,,,,,,,,,,,,,,,,,,,,,,,,,,,,,,,,,,,,,,,,,,,,,,,,,,,,,,,,,
"University College London","Университетский колледж Лондона","Gower St, Bloomsbury, London WC1E 6BT, UK",-0.133578,51.524789,"https://en.wikipedia.org/wiki/University_College_London","university_college_london.png","Confirmed by university website","http://readinglists.ucl.ac.uk/lists/EBF4667F-D292-EE4D-5A45-2214DD76588B.html","Rise and Fall of Yugoslavia ","<span>Vujacic ""Institutional Origins of Contemporary Serbian Nationalism"" 1996</span>",,,,,,,,,,,,,,,,,,,,,,,,,,,,,,,,,,,,,,,,,,,,,,,,,,,,,,,,,,,,,
"University of California, Berkeley","Калифорнийский университет, Беркли","Berkeley, CA 94720, USA",-122.259,37.87,"https://en.wikipedia.org/wiki/University_of_California,_Berkeley","uc_berkeley.png","Confirmed by university website","http://www.sscnet.ucla.edu/polisci/faculty/trachtenberg/syllabi,lists/berkeley/PS129BFish-Russia.html","Russia after Communism","<a href=""https://books.google.ru/books/about/Russia_in_the_New_Century.html?id=dpE39P-p9EcC&redir_esc=y"" target=""_blank"">Vujacic 1998</a>",,,,,,,,,"http://polisci.berkeley.edu/sites/default/files/people/u3833/129BSylSummer2016.pdf","Russian Politics","<a href=""https://books.google.ru/books/about/Authoritarian_Russia.html?id=1QDzCAAAQBAJ&redir_esc=y"" target=""_blank"">Gel'man 2015</a>",,,,,,,"http://anthropology.berkeley.edu/people/alexei-yurchak","Post-Soviet Transformations","<a href=""http://kommunalka.colgate.edu/"" target=""_blank"">Utekhin Kommunalka""</a>","<a href=""http://www.iupress.indiana.edu/product_info.php?products_id=807173"" target=""_blank"">Utekhin 2015</a>","<a href=""https://eu.spb.ru/images/et_dep/abashin/abashin_etnogrMigr.pdf"" target=""_blank"">Абашин 2012</a>","<a href=""http://saq.dukejournals.org/content/113/1/186.abstract"" target=""_blank"">Matveev 2014</a>","<a href=""http://www.cornellpress.cornell.edu/book/?GCOI=80140100364090"" target=""_blank"">Volkov 2002</a>",,,,"http://anthropology.berkeley.edu/people/alexei-yurchak","Revolutions and the Aftermath","<a href=""https://books.google.ru/books/about/Interpreting_the_Russian_Revolution.html?id=R1JSwqQh2NkC&redir_esc=y"" target=""_blank"">Kolonitsky & Figes 1999</a>","<a href=""http://www.ucpress.edu/book.php?isbn=9780520216044"" target=""_blank"">Kharkhordin 1999</a>
","<a href=""http://www.bloomsbury.com/us/negative-revolution-9781441168085/"" target=""_blank"">Magun 2013</a>",,,,,,,"http://geography.berkeley.edu/people/visiting-professors-and-lecturers/melanie-feakins/","Post-Socialist Spaces","<a href=""http://www.iupress.indiana.edu/product_info.php?products_id=807173"" target=""_blank"">Utekhin 2015</a>","<a href=""http://www.cornellpress.cornell.edu/book/?GCOI=80140100364090"" target=""_blank"">Volkov 2002</a>","<a href=""http://www.ucpress.edu/book.php?isbn=9780520216044"" target=""_blank"">Kharkhordin 1999</a>
","<a href=""https://eu.spb.ru/images/gender/wmothersnannies%20MaxPlanc.PDF"" target=""_blank"">Zdravomyslova 2010</a>",,,,,,,,,,,,,,,,,
"State University of New York at Albany","Государственный университет Нью-Йорка в Олбани","1400 Washington Ave, Albany, NY 12222, USA",-73.823884,42.686193,"https://en.wikipedia.org/wiki/University_at_Albany,_SUNY","suny_albany.png","Confirmed by university website","http://www.albany.edu/rockefeller/syllabi/fall2015/2015/POS/grad/RPOS%20552%20Chen%20Fall%202015%20Syllabus.pdf","Communist and Post-Communist Politics","<a href=""https://link.springer.com/article/10.1007/BF00159816""  target=""_blank"">Vujacic 1996</a>",,,,,,,,,,,,,,,,,,,,,,,,,,,,,,,,,,,,,,,,,,,,,,,,,,,,,,,,,,,,,
"University of Michigan","Университет Мичигана","500 S State St, Ann Arbor, MI 48109, USA",-83.735,42.283,"https://en.wikipedia.org/wiki/University_of_Michigan","university_michigan.png","Confirmed by university website","http://www-personal.umich.edu/~abusse/ECEP%20syllabus%202010.pdf","East Central Europe: Revolution and Reform","<span>Vujacic ""Institutional Origins of Contemporary Serbian Nationalism"" 1996</span>",,,,,,,,,,,,,,,,,,,,,,,,,,,,,,,,,,,,,,,,,,,,,,,,,,,,,,,,,,,,,
"Hebrew University of Jerusalem","Еврейский университет в Иерусалиме","Jerusalem 9190401, Israel",35.1990896,31.7802838,"https://en.wikipedia.org/wiki/Hebrew_University_of_Jerusalem","hebrew_university.png","Confirmed by university website","http://shnaton.huji.ac.il/index.php/NewSyl/54666/2/2014/","Nationalism and Identity in Post-Communist CIS","<a href=""http://journal.telospress.com/content/1991/88/120.abstract"" target=""_blank"">Vujacic 1991</a>",,,,,,,,,,,,,,,,,,,,,,,,,,,,,,,,,,,,,,,,,,,,,,,,,,,,,,,,,,,,,
"University of Iowa","Университет Айовы","Iowa City, IA 52242, USA",-91.533333,41.65,"https://en.wikipedia.org/wiki/University_of_Iowa","university_iowa.png","Confirmed by instructor","https://clas.uiowa.edu/polisci/people/william-m-reisinger","Russian Politics","<a href=""https://books.google.ru/books/about/Authoritarian_Russia.html?id=1QDzCAAAQBAJ&redir_esc=y"" target=""_blank"">Gel'man 2015</a>","<a href=""http://booksandjournals.brillonline.com/content/journals/10.1163/24518921-00101002"" target=""_blank"">Gel'man 2016</a>",,,,,,,,,,,,,,,,,,,,,,,,,,,,,,,,,,,,,,,,,,,,,,,,,,,,,,,,,,,,
"Nazarbayev University","Университет Назарбаева","Qabanbay Batyr Ave 53, Astana 010000, Kazakhstan",71.399444,51.09,"https://en.wikipedia.org/wiki/Nazarbayev_University","nazarbayev_university.png","Confirmed by instructor","https://shss.nu.edu.kz/faculty/beatrice-penati","History of Kazakhstan","<a href=""https://books.google.ru/books/about/%D0%A6%D0%B5%D0%BD%D1%82%D1%80%D0%B0%D0%BB%D1%8C%D0%BD%D0%B0%D1%8F_%D0%90%D0%B7%D0%B8%D1%8F_%D0%B2_%D1%81%D0%BE.html?id=hGEjAQAAIAAJ&redir_esc=y"" target=""_blank"">Абашин 2008</a>",,,,,,,,,"https://shss.nu.edu.kz/faculty/beatrice-penati","Central Asian History II","<a href=""http://www.tandfonline.com/doi/abs/10.1080/02634937.2014.909196"" target=""_blank"">Abashin 2014</a>",,,,,,,"https://shss.nu.edu.kz/faculty/daniel-beben","Sufism in Central Asia","<a href=""http://www.orientalstudies.ru/rus/index.php?option=com_publications&Itemid=75&pub=1914"" target=""_blank"">Бустанов 2013</a>",,,,,,,,"https://shss.nu.edu.kz/faculty/caress-schenk","Politics and Governance of the Russian Federation","<a href=""http://www.tandfonline.com/doi/abs/10.2753/RUP1061-1940480201"" target=""_blank"">Gel'man 2010</a>","<a href=""http://www.tandfonline.com/doi/abs/10.1080/1465342042000294347?needAccess=true"" target=""_blank"">Gel'man 2004</a>","<a href=""http://www.jsse.org/index.php/jsse/article/view/1378"" target=""_blank"">Potapova 2014</a>",,"https://shss.nu.edu.kz/faculty/zbigniew-wojnowski","Utopias in Russian and Soviet Literature","<a href=""https://books.google.ru/books/about/Constructing_Russian_culture_in_the_age.html?id=Pf0LAQAAMAAJ&redir_esc=y"" target=""_blank"">Volkov 1998</a>","<a href=""https://books.google.ru/books/about/From_darkness_to_light.html?id=JZdWAAAAYAAJ&redir_esc=y"" target=""_blank"">Halfin 2000</a>",,"https://shss.nu.edu.kz/academics/departments/history-philosophy-religious-studies-department","History programme at NU","<a href=""http://www.nlobooks.ru/node/5409"" target=""_blank"">Абашин 2015</a>","<a href=""https://books.google.ru/books/about/%D0%9D%D0%B0%D1%86%D0%B8%D0%BE%D0%BD%D0%B0%D0%BB%D0%B8%D0%B7%D0%BC%D1%8B_%D0%B2_%D0%A1%D1%80%D0%B5%D0%B4%D0%BD%D0%B5.html?id=tAlpAAAAMAAJ&redir_esc=y"" target=""_blank"">Абашин 2007</a>","<a href=""http://www.academia.edu/946310/The_Sacred_Texts_of_Siberian_Khwaja_Families._The_Descendants_of_Sayyid_Ata"" target=""_blank"">Bustanov 2011</a>","<a href=""http://www.nlobooks.ru/node/2380"" target=""_blank"">Колоницкий 2010</a>
","<a href=""http://www.academia.edu/1752654/%D1%81%D0%B1._%D0%90%D0%B7%D0%B8%D0%B0%D1%82%D1%81%D0%BA%D0%B0%D1%8F_%D0%A0%D0%BE%D1%81%D1%81%D0%B8%D1%8F_%D0%BB%D1%8E%D0%B4%D0%B8_%D0%B8_%D1%81%D1%82%D1%80%D1%83%D0%BA%D1%82%D1%83%D1%80%D1%8B_%D0%B8%D0%BC%D0%BF%D0%B5%D1%80%D0%B8%D0%B8._%D0%9E%D1%82%D0%B2._%D1%80%D0%B5%D0%B4._%D0%90._%D0%A0%D0%B5%D0%BC%D0%BD%D1%91%D0%B2._%D0%9E%D0%BC%D1%81%D0%BA_2005"" target=""_blank"">Абашин 2005</a>","<a href=""https://eu.spb.ru/images/et_dep/abashin/Abashin_kolhoz.pdf"" target=""_blank"">Абашин 2011</a>","<a href=""https://books.google.ru/books?id=2f4pSA4S8UwC&pg=PA150&lpg=PA150&dq=Sergei+Abashin:+%27Nation-construction+in+post-Soviet+Central+Asia%27+//+Soviet+and+Post-Soviet+Identities&source=bl&ots=EhwGJ5uR6a&sig=SQlm083kEyxZR5_uyWpQKIbvPT8&hl=en&sa=X&ved=0ahUKEwjRgM7Qu4PTAhWIJJoKHb_uAnMQ6AEILDAD#v=onepage&q&f=false"" target=""_blank"">Abashin 2012</a>","<a href=""http://www.tandfonline.com/doi/abs/10.1080/02634937.2014.909196"" target=""_blank"">Abashin 2014</a>","<a href=""https://books.google.ru/books/about/Soviet_Orientalism_and_the_Creation_of_C.html?id=2ZSLBQAAQBAJ&redir_esc=y"" target=""_blank"">Bustanov 2014</a>","<a href=""http://booksandjournals.brillonline.com/content/journals/10.1163/18747167-12341300"" target=""_blank"">Bustanov 2016</a>",,,,,,,"https://shss.nu.edu.kz/faculty/caress-schenk","Politics and Governance in Eurasia","<a href=""https://epay.newschool.edu/C21120_ustores/web/product_detail.jsp?PRODUCTID=1484"" target=""_blank"">Volkov 2000</a>",,
"State University of New York at Stony ","Государственный университет Нью-Йорка в Стоуни-Брук","100 Nicolls Rd, Stony Brook, NY 11794, USA",-73.11623,40.914224,"https://en.wikipedia.org/wiki/Stony_Brook_University","stony_brook_university.png","Confirmed by university website","https://classie.stonybrook.edu/sites/classie.stonybrook.edu/files/courses/his402/spring-2014/s01-sem/HIS402-S01-Spring%202014-Syllabus.pdf","Everyday Life in Stalin’s Russia: 1920s­1953","<a href=""https://books.google.ru/books?id=echKznrXyNYC&dq=The+Leningrad+Blockade,+1941-1944&hl=en&sa=X&redir_esc=y"" target=""_blank"">Bidlack & Lomagin 2012</a>",,,,,,,,,,,,,,,,,,,,,,,,,,,,,,,,,,,,,,,,,,,,,,,,,,,,,,,,,,,,,
"Liverpool Hope University","Ливерпульский университет Надежды","Hope Park, Taggart Ave, Liverpool L16 9JD, UK",-2.892150879,53.39581798,"https://en.wikipedia.org/wiki/Liverpool_Hope_University","liverpool_hope_university.png","Confirmed by university website","https://www.hope.ac.uk/media/liverpoolhope/contentassets/documents/postgraduateresearch/media,27644,en.pdf","Stalin’s Great Terror","<a href=""https://books.google.ru/books?id=echKznrXyNYC&dq=The+Leningrad+Blockade,+1941-1944&hl=en&sa=X&redir_esc=y"" target=""_blank"">Bidlack & Lomagin 2012</a>",,,,,,,,,,,,,,,,,,,,,,,,,,,,,,,,,,,,,,,,,,,,,,,,,,,,,,,,,,,,,
"Paris-Sorbonne University","Университет Париж-Сорбонна","75005 Paris, France",2.342778,48.848611,"https://en.wikipedia.org/wiki/Paris-Sorbonne_University","paris_sorbonne_university.png","Confirmed by instructor","http://www.paris-sorbonne.fr/OSTROMOOUKHOVA-Bella","Histoire sociale et culturelle de l’URSS","<a href=""http://www.eupress.ru/books/index/item/id/258"" target=""_blank"">Хархордин 2016</a>","<a href=""https://books.google.ru/books/about/The_Collective_and_the_Individual_in_Rus.html?id=PbQqdOu3xJUC&redir_esc=y"" target=""_blank"">Kharkhordin 1999</a>
","<a href=""http://eupress.ru/books/index/item/id/91"" target=""_blank"">Фирсов 2010</a>","<a href=""http://www.eupress.ru/books/index/item/id/29"" target=""_blank"">Фирсов 2008</a>","<a href=""http://eupress.ru/books/index/view/series/15"" target=""_blank"">Конструируя ""советское"" 2016</a>",,,,,"http://www.paris-sorbonne.fr/OSTROMOOUKHOVA-Bella","Transformations culturelles dans la Russie actuelle","<a href=""http://www.eupress.ru/books/index/item/id/92"" target=""_blank"">Здравомыслова и др. 2010</a>","<a href=""http://www.eupress.ru/books/index/item/id/35"" target=""_blank"">Здравомыслова, Темкина и Роткирх 2009</a>",,,,,,"http://www.paris-sorbonne.fr/OSTROMOOUKHOVA-Bella","Economie Russe","<a href=""http://eupress.ru/books/index/item/id/30"" target=""_blank"">Гельман и Хопф 2003</a>",,,,,,,,,,,,,,,,,,,,,,,,,,,,,,,,,,,,,,,,,
"Ecole des Hautes Etudes en Sciences Sociales","Школа перспективных исследований в области общественных наук","190-198 Avenue de France, 75013 Paris, France",2.326758,48.850239,"https://en.wikipedia.org/wiki/School_for_Advanced_Studies_in_the_Social_Sciences","school_advanced_studies_social_sciences.png","Confirmed by instructor","https://ehess.academia.edu/LarissaZakharova","Historiographie et langues étrangères: Russe","<a href=""http://www.rosspen.su/ru/catalog/.view/good/978-5-8243-1790-9/"" target=""_blank"">Кром 2013</a>","<a href=""http://www.soclabo.org/index.php/laboratorium/article/view/436"" target=""_blank"">Bogdanova 2014</a>","<a href=""http://www.eupress.ru/books/index/item/id/258"" target=""_blank"">Хархордин 2016</a>","<a href=""https://jsps.hse.ru/data/2010/12/31/1208180074/zdravomyslova_temkina_gosudarstvennoe_konstruirovanie.PDF"" target=""_blank"">Здравомыслова и Темкина 2010</a>",,,,,,"https://www.ehess.fr/fr/personne/alain-blum","Seminar on Soviet history","<a href=""http://www.nlobooks.ru/node/5409"" target=""_blank"">Абашин 2015</a>","<a href=""http://www.nlobooks.ru/node/2380"" target=""_blank"">Колоницкий 2010</a>
",,,,,,"https://www.ehess.fr/fr/personne/fran%C3%A7oise-dauc%C3%A9","Political Sociology of Contemporary Russia","<a href=""http://www.nlobooks.ru/node/547"" target=""_blank"">Хархордин 2011</a>","<a href=""https://books.google.ru/books?id=hHrRoXtu6YoC&lpg=PA26&ots=aA0njJGYq2&dq=Political%20Theory%20and%20Community%20Building%20in%20Post-Soviet%20Russia.%20Ed.%20by%20Oleg%20Kharkhordin%20and%20Risto%20Alapuro&pg=PP1#v=onepage&q&f=false"" target=""_blank""> Kharkhordin & Alapuro 2011</a>","<a href=""https://books.google.ru/books/about/The_Politics_of_Sub_National_Authoritari.html?id=f9YYMVqe1eEC&redir_esc=y"" target=""_blank"">Gel'man & Ross 2013</a>",,,,,,"http://crh.ehess.fr/index.php?141","Vers une histoire politique des sens : les pratiques d’influence aux XXe et XXIe siècles","<a href=""https://books.google.ru/books/about/The_Collective_and_the_Individual_in_Rus.html?id=PbQqdOu3xJUC&redir_esc=y"" target=""_blank"">Kharkhordin 1999</a>","<a href=""http://eupress.ru/uploads/ebooks/praktiki_e.pdf"" target=""_blank"">Волков и Хархордин 2008</a>",,,,,,,,,,,,,,,,,,,,,,,,,,,,,,
"Ural Federal University","Уральский федеральный университет","ul. Mira, 19, Yekaterinburg, Sverdlovskaya oblast', 620002",60.6539,56.844,"https://en.wikipedia.org/wiki/Ural_Federal_University","ural_federal_university.png","Confirmed by instructor","http://study.urfu.ru/Aid/ViewMeta/12478","История инакомыслия в СССР","<a href=""http://www.eupress.ru/books/index/item/id/258"" target=""_blank"">Хархордин 2016</a>
","<a href=""http://www.eupress.ru/books/index/item/id/29"" target=""_blank"">Фирсов 2008</a>",,,,,,,,,,,,,,,,,,,,,,,,,,,,,,,,,,,,,,,,,,,,,,,,,,,,,,,,,,,,
"Saint Petersburg State University","Санкт-Петербургский государственный университет","University Embankment, 7/9, Sankt-Peterburg, 199034",30.299,59.942,"https://en.wikipedia.org/wiki/Saint_Petersburg_State_University","saint_petersburg_state_university.png","Confirmed by instructor","http://www.zdes.spbu.ru/o-nas/rossijskij-ofis/anisya-xoxlova","Социология повседневности","<a href=""http://eupress.ru/uploads/ebooks/praktiki_e.pdf"" target=""_blank"">Волков и Хархордин 2008</a>",,,,,,,,,"http://www.zdes.spbu.ru/o-nas/rossijskij-ofis/anisya-xoxlova","Методы исследования культуры и конфликтов","<a href=""https://cisr.ru/publications/v-poiskah-seksualnosti/"" target=""_blank"">Здравомыслова и Темкина 2002</a>",,,,,,,,,,,,,,,,,,,,,,,,,,,,,,,,,,,,,,,,,,,,,,,,,,
"University of Lausanne","Лозаннский университет","1015 Lausanne, Switzerland",6.579444,46.5225,"https://en.wikipedia.org/wiki/University_of_Lausanne","university_lausanne.png","Confirmed by instructor","https://applicationspub.unil.ch/interpub/noauth/php/Un/UnPers.php?PerNum=60205&LanCode=37","L'époque de Mandel'shtam","<a href=""https://www.academia.edu/14583825/_Дикая_парабола_Джорджоне_в_Египетской_марке_Мандельштама_От_слов_к_телу._Сборник_к_60-летию_Ю.Г._Цивьяна._М._НЛО_2010._С._181_-_200"" target=""_blank"">Мазур 2010</a>","<a href=""https://www.academia.edu/3311955/Максимилиан_Vol-oh-Chine_и_традиция_межъязыковых_игр_в_русской_поэзии_начала_ХХ_века"" target=""_blank"">Мазур 2011</a>","<a href=""https://www.academia.edu/14582816/Об_именах_и_судьбах_незамеченные_подтексты_стихов_к_Наталии_Штемпель_Мандельштама_Русско-французский_Разговорник_или_ou_Les_Causeries_du_7_septembre_Сборник_статей_в_честь_В.А._Мильчиной._М._2014._С._432-443"" target=""_blank"">Мазур 2014</a>","<a href=""https://www.academia.edu/11415059/_Масло_парижских_картин_из_искусствоведческих_примечаний_к_прозе_и_стихам_О.Э.Мандельштама"" target=""_blank"">Доронченков 2013</a>",,,,,,"https://applicationspub.unil.ch/interpub/noauth/php/Un/UnPers.php?PerNum=60205&LanCode=37","Grands courants poétiques & Traduction et traductologie ","<a href=""https://publications.hse.ru/books/99771881"" target=""_blank"">Мазур и Бодрова 2012</a>
","<a href=""http://elibrary.ru/item.asp?id=23167447"" target=""_blank"">Блюмбаум и Охотин 2012</a>","<a href=""http://lib.pushkinskijdom.ru/LinkClick.aspx?fileticket=LeXfAgJ5818%3D&tabid=10183"" target=""_blank"">Мазур 2011</a>","<a href=""http://lib.pushkinskijdom.ru/LinkClick.aspx?fileticket=O-zTZJO5OkY%3D&tabid=10358"" target=""_blank"">Мазур 2009</a>
","<a href=""https://www.academia.edu/10397724/К_источникам_пушкинской_философии_случая_Гельвеций"" target=""_blank"">Мазур 2014</a>",,,,,,,,,,,,,,,,,,,,,,,,,,,,,,,,,,,,,,,,,,,,,,
"University of Westminster","Вестминстерский университет","309 Regent St, Marylebone, London W1B 2HW, UK",-0.142972,51.517,"https://en.wikipedia.org/wiki/University_of_Westminster","university_westminster.png","Confirmed by university website","http://readinglists.westminster.ac.uk/lists/42585A34-01E8-F840-5DAC-945108284152.html","Comparative Politics","<a href=""https://eu.spb.ru/images/M_center/eas2015.pdf"" target=""_blank"">Gel'man 2015</a>","<a href=""http://www.tandfonline.com/doi/abs/10.1080/09668130802161165"" target=""_blank"">Gel'man 2008</a>",,,,,,,,,,,,,,,,,,,,,,,,,,,,,,,,,,,,,,,,,,,,,,,,,,,,,,,,,,,,
"Oxford Brookes University","Университет Оксфорд Брукс","Headington Campus, Headington Rd, Gipsy Ln, Oxford OX3 0BP, UK",-1.2227,51.754267,"https://en.wikipedia.org/wiki/Oxford_Brookes_University","oxford_brookes_university.png","Confirmed by university website","https://brookes.rl.talis.com/lists/2EFEB49E-E0E7-51E5-531B-40B6C7DE2458.html","State and Society in Contemporary Russia","<a href=""https://books.google.ru/books/about/Authoritarian_Russia.html?id=1QDzCAAAQBAJ&redir_esc=y"" target=""_blank"">Gel'man 2015</a>","<a href=""http://www.sciencedirect.com/science/article/pii/S0967067X12000517"" target=""_blank"">Gel'man 2012</a>","<a href=""http://www.tandfonline.com/doi/abs/10.2753/PPC1075-8216590601?journalCode=mppc20"" target=""_blank"">Golosov 2014</a>","<a href=""http://www.tandfonline.com/doi/abs/10.1080/09668136.2011.557533"" target=""_blank"">Golosov 2011</a>","<a href=""http://www.tandfonline.com/doi/abs/10.2753/PPC1075-8216600201"" target=""_blank"">Gel'man 2013</a>","<a href=""http://www.tandfonline.com/doi/abs/10.1080/09668130802161165"" target=""_blank"">Gel'man 2008</a>","<a href=""https://eu.spb.ru/images/M_center/eas2015.pdf"" target=""_blank"">Gel'man 2015</a>","<a href=""https://www2.gwu.edu/~ieresgwu/assets/docs/503-522_Gelman.pdf"" target=""_blank"">Gel'man 2014</a>",,,,,,,,,,,,,,,,,,,,,,,,,,,,,,,,,,,,,,,,,,,,,,,,,,,,,,
"Dublin City University 
","Дублинский городской университет","Glasnevin, Dublin 9, Ireland",-6.256542,53.384954,"https://en.wikipedia.org/wiki/Dublin_City_University","dublin_city_university.png","Confirmed by university website","http://2013.moodle-archive.dcu.ie/file.php/33377/Russia_and_Post-Soviet_space_LG232_outline.pdf","Russia and the Former Soviet Space ","<a href=""http://journals.sagepub.com/doi/pdf/10.1177/0192512107085610"" target=""_blank"">Gel'man 2008</a>","<a href=""https://eu.spb.ru/images/pss_dep/gelman_Political_Opposition_in_Russia.pdf"" target=""_blank"">Gel'man 2005</a>","<a href=""https://books.google.ru/books/about/Political_Parties_in_the_Regions_of_Russ.html?id=8zSt47-06tAC&redir_esc=y&hl=en"" target=""_blank"">Golosov 2004</a>","<a href=""https://eu.spb.ru/images/pss_dep/gelman_From_Feckless_Pluralism_to.pdf"" target=""_blank"">Gel'man 2006</a>","<a href=""http://www.tandfonline.com/doi/abs/10.1080/09668130802161165"" target=""_blank"">Gel'man 2008</a>",,,,,,,,,,,,,,,,,,,,,,,,,,,,,,,,,,,,,,,,,,,,,,,,,,,,,,,,,
"York University ","Йоркский университет","4700 Keele St, Toronto, ON M3J 1P3, Canada",-79.503611,43.773056,"https://en.wikipedia.org/wiki/York_University","york_university.png","Confirmed by university website","http://apps.eso.yorku.ca/domino/html/outlines/crsoutlines.nsf/webdisplay-courseoutlines/416FAC5956B41C7085257B6E0069565B/$file/POLS%203401M%20-%20W14%20-%20S.%20Smolnikov.pdf","Post-Communist Transformations: Can East Become West?
","<a href=""https://eu.spb.ru/images/pss_dep/gelman_Political_Opposition_in_Russia.pdf"" target=""_blank"">Gel'man 2005</a>","<a href=""http://www.tandfonline.com/doi/abs/10.1080/09668130802161165"" target=""_blank"">Gel'man 2008</a>",,,,,,,,,,,,,,,,,,,,,,,,,,,,,,,,,,,,,,,,,,,,,,,,,,,,,,,,,,,,
"Saint Tikhon's Orthodox University of Humanities","Православный Свято-Тихоновский гуманитарный университет","ul. Novokuznetskaya, 23Б, Moskva, 115184",37.6129,55.77204,"https://en.wikipedia.org/wiki/Saint_Tikhon%27s_Orthodox_University","saint_tikhon_orthodox_university_humanities.png","Confirmed by instructor","http://socrel.pstgu.ru/RU/people/krihtova","Антропология религии","<a href=""https://www.ozon.ru/context/detail/id/3242312/"" target=""_blank"">Березкин 2007</a>","<a href=""http://anthropologie.kunstkamera.ru/files/pdf/018/shtyrkov.pdf"" target=""_blank"">Штырков 2013</a>","<a href=""http://eupress.ru/books/index/item/id/44"" target=""_blank"">Штырков, Панченко и Кормина 2006</a>","<a href=""http://eupress.ru/books/index/item/id/216"" target=""_blank"">Штырков, Панченко и Кормина 2015</a>",,,,,,,,,,,,,,,,,,,,,,,,,,,,,,,,,,,,,,,,,,,,,,,,,,,,,,,,,,
"University of Tampere","Университет Тампере","Kalevantie 4, 33100 Tampere, Finland",23.778056,61.494167,"https://en.wikipedia.org/wiki/University_of_Tampere","university_tampere.png","Confirmed by instructor","http://www.uta.fi/ltl/ven/kaytannot/tentit.html","Русская литература и гендер","<a href=""https://cisr.ru/publications/krizis-maskulinnosti-v-pozdnesovetskom-diskurse/"" target=""_blank"">Здравомыслова и Темкина 2002</a>","<a href=""http://eupress.ru/books/index/item/id/229"" target=""_blank"">Здравомыслова и Темкина 2015</a>",,,,,,,,"http://www.uta.fi/ltl/ven/kaytannot/tentit.html","Популярная культура","<a href=""https://cisr.ru/publications/krizis-maskulinnosti-v-pozdnesovetskom-diskurse/"" target=""_blank"">Здравомыслова и Темкина 2002</a>","<a href=""http://ecsocman.hse.ru/data/234/149/1217/002.VOLKOV.pdf"" target=""_blank"">Волков и Хархордин 1997</a>",,,,,,,,,,,,,,,,,,,,,,,,,,,,,,,,,,,,,,,,,,,,,,,,,
"Russian State University for the Humanities","Российский государственный гуманитарный университет","Miusskaya sq. 6, Moscow, GSP-3, 125993, Russia",37.596111,55.776667,"https://en.wikipedia.org/wiki/Russian_State_University_for_the_Humanities","russian_state_university_for_the_humanities.png","Confirmed by instructor","http://culture.rsuh.ru/article.html?id=2629654","Анализ текстов медиа культуры ","<a href=""http://eupress.ru/books/index/item/id/229"" target=""_blank"">Здравомыслова и Темкина 2015</a>",,,,,,,,,"http://culture.rsuh.ru/article.html?id=2629654","Теория и практика гендерных исследований","<a href=""http://www.a-z.ru/women/texts/zdravr.htm"" target=""_blank"">Здравомыслова и Темкина 1997</a>","<a href=""https://cisr.ru/files/publ/Xrest_fem_texts.pdf"" target=""_blank"">Здравомыслова и Темкина 2000</a>",,,,,,"http://culture.rsuh.ru/article.html?id=2629654","Исследования медиа","<a href=""http://eupress.ru/books/index/item/id/229"" target=""_blank"">Здравомыслова и Темкина 2015</a>",,,,,,,,,,,,,,,,,,,,,,,,,,,,,,,,,,,,,,,,,
"University of Illinois at Urbana–Champaign","Университет штата Иллинойс в Урбана-Шампейн","Champaign, IL, USA",-88.228411,40.110539,"https://en.wikipedia.org/wiki/University_of_Illinois_at_Urbana%E2%80%93Champaign","university_illinois_at_urbana–champaign.png","Confirmed by university website","http://www.reeec.illinois.edu/teachers/lesson/EverydayLifeunderSocialism.html","Everyday Life under Late Socialism","<a href=""http://kommunalka.colgate.edu/"" target=""_blank"">Utekhin Kommunalka""</a>",,,,,,,,,,,,,,,,,,,,,,,,,,,,,,,,,,,,,,,,,,,,,,,,,,,,,,,,,,,,,
"Connecticut College ","Колледж Коннектикута","270 Mohegan Avenue, New London, CT 06320, USA",-72.104669,41.378433,"https://en.wikipedia.org/wiki/Connecticut_College","сonnecticut_сollege.png","Confirmed by university website","http://digitalcommons.conncoll.edu/cgi/viewcontent.cgi?article=1003&context=slaviccourse","Russia: From Empire to Nation","<a href=""https://books.google.ru/books?id=RQrDAgAAQBAJ&lpg=PT387&ots=3RXMwkvNr7&dq=Social%20Networking%20on%20the%20Internet%3A%20Is%20the%20Russian%20Way%20Special%3F%E2%80%9D%20In%20Understanding%20Russianness&pg=PP1#v=onepage&q&f=false"" target=""_blank"">Utekhin 2002</a>","<a href=""http://www.ceupress.com/books/html/ImperialRule.htm"" target=""_blank"">Miller 2004</a>","<a href=""http://www.ceupress.com/books/html/TheRomanovEmpire.htm"" target=""_blank"">Miller 2008</a>",,,,,,,,,,,,,,,,,,,,,,,,,,,,,,,,,,,,,,,,,,,,,,,,,,,,,,,,,,,
"Whatcom Community College","Общественный Колледж Уотком","237 W Kellogg Rd, Bellingham, WA 98226, USA",-122.493889,48.795278,"https://en.wikipedia.org/wiki/Whatcom_Community_College","whatcom_community_college.png","Confirmed by university website","http://www.ccidinc.org/docs/Survey_of_Russian_History_Syllabus_by_Ian_Stacy.pdf","Survey of Russian History ","<a href=""http://kommunalka.colgate.edu/"" target=""_blank"">Utekhin Kommunalka""</a>",,,,,,,,,,,,,,,,,,,,,,,,,,,,,,,,,,,,,,,,,,,,,,,,,,,,,,,,,,,,,
"IES Abroad Berlin Metropolitan Studies","Программа исследований больших городов в Берлине (IES Abroad)","Johannisstrasse 6, 10117 Berlin - Mitte",13.3847539,52.5155098,"https://www.iesabroad.org/study-abroad/programs/berlin-metropolitan-studies","ies_abroad_berlin_metropolitan_studies.png","Confirmed by university website","https://www.iesabroad.org/study-abroad/courses/berlin/fall-2012/us-so-366","The Recycled and Fragmented City","<a href=""https://books.google.ru/books/about/Cultural_Identity_in_Transition.html?id=RYSsGcGj_voC&redir_esc=y"" target=""_blank"">Utekhin 2004</a>",,,,,,,,,,,,,,,,,,,,,,,,,,,,,,,,,,,,,,,,,,,,,,,,,,,,,,,,,,,,,
"Swarthmore College","Колледж Суортмор","500 College Ave, Swarthmore, PA 19081, USA",-75.353889,39.905,"https://en.wikipedia.org/wiki/Swarthmore_College","swarthmore_college.png","Confirmed by university website","http://www.swarthmore.edu/Documents/academics/history/F08%201Q%20Syllabus.pdf","Angels of Death: Russia Under Lenin and Stalin","<a href=""http://kommunalka.colgate.edu/"" target=""_blank"">Utekhin Kommunalka""</a>",,,,,,,,,,,,,,,,,,,,,,,,,,,,,,,,,,,,,,,,,,,,,,,,,,,,,,,,,,,,,
"Portland State University","Государственный университет Портленда","1825 SW Broadway, Portland, OR 97201, USA",-122.685278,45.512778,"https://en.wikipedia.org/wiki/Portland_State_University","portland_state_university.png","Confirmed by university website","https://www.pdx.edu/wll/resources-russian","Russian","<a href=""http://kommunalka.colgate.edu/"" target=""_blank"">Utekhin Kommunalka""</a>",,,,,,,,,,,,,,,,,,,,,,,,,,,,,,,,,,,,,,,,,,,,,,,,,,,,,,,,,,,,,
"University of Eastern Finland - Joensuu","Университет Восточной Финляндии - Йоэнсуу","Yliopistokatu 2, 80100 Joensuu, Finland",27.6783,62.8925,"https://en.wikipedia.org/wiki/University_of_Eastern_Finland","university_of_eastern_finland.png","Confirmed by instructor","https://cisr.ru/team/bogdanova/","Rule of Law in Russia","<a href=""https://books.google.ru/books/about/The_Collective_and_the_Individual_in_Rus.html?id=PbQqdOu3xJUC&redir_esc=y"" target=""_blank"">Kharkhordin 1999</a>","<a href=""http://www.cornellpress.cornell.edu/book/?GCOI=80140100364090"" target=""_blank"">Volkov 2002</a>",,,,,,,,"https://cisr.ru/team/bogdanova/","Qualitative Approaches to Empirical Legal Studies","<a href=""http://journals.sagepub.com/doi/abs/10.1177/1350506807081884"" target=""_blank"">Rotkirch, Temkina & Zdravomyslova 2007</a>","<a href=""https://books.google.ru/books/about/Gender_Orders_Unbound.html?id=V5MUAQAAIAAJ&redir_esc=y"" target=""_blank"">Zdravomyslova 2006</a>",,,,,,,,,,,,,,,,,,,,,,,,,,,,,,,,,,,,,,,,,,,,,,,,,
"Russian Presidential Academy of National Economy and Public Administration under the President of the Russian Federation","Российская академия народного хозяйства и государственной службы при Президенте РФ","Prospekt Vernadskogo, 82-84, Moskva, 119571",37.479444,55.667222,"https://en.wikipedia.org/wiki/Russian_Presidential_Academy_of_National_Economy_and_Public_Administration
","russian_presidential_academy_of_national_economy_and_public_administration.png","Confirmed by instructor","http://ion.ranepa.ru/about/staff/525/","Региональная политика и местное самоуправление","<a href=""https://books.google.ru/books/about/%D0%A0%D0%BE%D1%81%D1%81%D0%B8%D1%8F_%D1%80%D0%B5%D0%B3%D0%B8%D0%BE%D0%BD%D0%BE%D0%B2.html?id=wY0yAAAAMAAJ&redir_esc=y"" target=""_blank"">Гельман, Рыженков и Бри 2000</a>","<a href=""http://www.politstudies.ru/index.php?page_id=453&id=3688"" target=""_blank"">Гельман 2006</a>","<a href=""http://magazines.russ.ru/nz/2010/2/by7.html"" target=""_blank"">Гельман и Бычкова 2010</a>","<a href=""http://www.eupress.ru/books/index/item/id/90"" target=""_blank"">Гельман и Маргания 2010</a>",,,,,,,,,,,,,,,,,,,,,,,,,,,,,,,,,,,,,,,,,,,,,,,,,,,,,,,,,,
"Tomsk State University","Томский государственный университет","Lenin Ave, 36, Tomsk, Tomskaya oblast', 634050",84.9475,56.4694,"https://en.wikipedia.org/wiki/Tomsk_State_University","tomsk_state_university.png","Confirmed by university website","http://past-centre.ru/courses/kursy/sociology_course/","Социология академического мира","<a href=""https://cisr.ru/publications/velichie-klassikov-ckromnaya-popytka-preodolet-propast-mezhdu-institutsionalnymi-i-intellektualnymi-obyasneniyami/"" target=""_blank"">Соколов 2007</a>","<a href=""http://ecsocman.hse.ru/data/254/718/1223/Sokolov_18.pdf"" target=""_blank"">Соколов 2009</a>","<a href=""http://cyberleninka.ru/article/n/rossiyskaya-sotsiologiya-posle-1991-goda-intellektualnaya-i-institutsionalnaya-dinamika-bednoy-nauki"" target=""_blank"">Соколов 2009</a>","<a href=""http://anthropologie.kunstkamera.ru/06/2008_9/summaries/"" target=""_blank"">Соколов 2008</a>
",,,,,,"http://past-centre.ru/courses/kursy/sovremennaya-rossijskaya-politika-v-oblasti-nauki-i-tehniki/","Современная российская политика в области науки и техники
","<a href=""vital.lib.tsu.ru/vital/access/services/Download/vtls:000407568/SOURCE1"" target=""_blank"">Попова и Бычкова 2011</a>",,,,,,,,,,,,,,,,,,,,,,,,,,,,,,,,,,,,,,,,,,,,,,,,,,
"Perm State University","Пермский государственный университет","ul. Bukireva, 15, Perm, Permskiy kray, 614990",56.1867,58.0075,"https://en.wikipedia.org/wiki/Perm_State_University","perm_state_university.png","Confirmed by instructor","http://comparativestudies.ru/about/sotrudniki/gilev-aleksey.html","Истоки современной России","<a href=""http://www.rapn.ru/library.php?d=445&n=35&p=7"" target=""_blank"">Голосов 2006</a>","<a href=""http://www.ozon.ru/context/detail/id/20764530/"" target=""_blank"">Гельман 2013</a>","<a href=""http://www.nlobooks.ru/node/5510"" target=""_blank"">Политика аполитичных 2014</a>",,,,,,,"http://comparativestudies.ru/about/sotrudniki/gilev-aleksey.html","Как работает государство, основы политического анализа","<a href=""http://enforce.spb.ru/images/Issledovanya/IRL_KGI_Reform_final_11.13.pdf"" target=""_blank"">Волков и др. 2013</a>",,,,,,,,,,,,,,,,,,,,,,,,,,,,,,,,,,,,,,,,,,,,,,,,,,
"Ufa State Petroleum Technological University","Уфимский государственный нефтяной технический университет","Pervomayskaya ul., 14, Ufa, Respublika Bashkortostan, 450000",56.0585,54.8185,"https://en.wikipedia.org/wiki/Ufa_State_Petroleum_Technological_University","ufa_state_petroleum_technological_university.png","Confirmed by instructor","http://comparativestudies.ru/about/sotrudniki/shkel-stanislav.html","Политическая система Российской Федерации и зарубежных стран","<a href=""http://old.eu.spb.ru/socio/regions/polit_text.pdf"" target=""_blank"">Голосов 2001</a>",,,,,,,,,"http://comparativestudies.ru/about/sotrudniki/shkel-stanislav.html","Политология","<a href=""http://old.eu.spb.ru/socio/regions/polit_text.pdf"" target=""_blank"">Голосов 2001</a>","<a href=""http://www.ozon.ru/context/detail/id/7968139/"" target=""_blank"">Голосов 2015</a>","<a href=""http://www.politstudies.ru/index.php?page_id=453&id=4044"" target=""_blank"">Гельман 2008</a>","<a href=""https://eu.spb.ru/images/M_center/Electoral_Authoritarianism_in_Russia.pdf"" target=""_blank"">Гельман 2008</a>",,,,"http://comparativestudies.ru/about/sotrudniki/shkel-stanislav.html","Политические отношения и политический процесс в современной России","<a href=""https://tuhat.helsinki.fi/portal/files/40272580/1007441089.pdf"" target=""_blank"">Гельман 2013</a>","<a href=""http://politeia.ru/files/articles/rus/Gelman_Starodubtsev_Politeia-2014-4(75).pdf"" target=""_blank"">Гельман и Стародубцев 2014</a>","<a href=""http://carnegieendowment.org/files/ProEtContra_54_94-115.pdf"" target=""_blank"">Гельман 2013</a>",,,,,,,,,,,,,,,,,,,,,,,,,,,,,,,,,,,,,,,
"University of Rennes 2","Университет Ренна 2","Place Recteur Henri le Moal, 35000 Rennes, France",-1.703,48.119,"https://en.wikipedia.org/wiki/University_of_Rennes_2_%E2%80%93_Upper_Brittany","university_rennes.png","Confirmed by instructor","https://perso.univ-rennes2.fr/michel.tissier","Endings of Empires","<a href=""https://books.google.ru/books/about/The_Romanov_Empire_and_Nationalism.html?id=3F5wIgM8PUgC&redir_esc=y"" target=""_blank"">Miller 2008</a>","<a href=""https://books.google.ru/books/about/The_Ukrainian_Question.html?id=YLJ_CwAAQBAJ&redir_esc=y"" target=""_blank"">Miller 2003</a>","<a href=""http://www.ceupress.com/books/html/Nationalizing%20Empires.htm"" target=""_blank"">Miller & Berger 2014</a>","<a href=""https://www.amazon.com/Interpreting-Russian-Revolution-Language-Symbols/dp/0300081065"" target=""_blank"">Kolonitskii & Figes 1999</a>",,,,,,,,,,,,,,,,,,,,,,,,,,,,,,,,,,,,,,,,,,,,,,,,,,,,,,,,,,
"University of Strasbourg","Университет Страсбурга","4 Rue Blaise Pascal, 67081 Strasbourg, France",7.764444,48.580278,"https://en.wikipedia.org/wiki/University_of_Strasbourg","university_strasbourg.png","Confirmed by instructor","https://www.unistra.fr/fileadmin/upload/unistra/facultes-ecoles-instituts/Departement_d_etudes_slaves/CV_Emilia_Koustova_fevrier_2013.pdf","Russian History","<a href=""https://www.amazon.com/Interpreting-Russian-Revolution-Language-Symbols/dp/0300081065"" target=""_blank"">Kolonitskii & Figes 1999</a>","<a href=""https://www.ozon.ru/context/detail/id/7275322/"" target=""_blank"">Яров 2011</a>","<a href=""https://books.google.ru/books/about/%D0%9A%D0%BE%D0%BD%D1%84%D0%BE%D1%80%D0%BC%D0%B8%D0%B7%D0%BC_%D0%B2_%D0%A1%D0%BE%D0%B2%D0%B5%D1%82%D1%81%D0%BA%D0%BE.html?id=ZmYjAQAAIAAJ&redir_esc=y"" target=""_blank"">Яров 2006</a>",,,,,,,"https://www.unistra.fr/fileadmin/upload/unistra/facultes-ecoles-instituts/Departement_d_etudes_slaves/CV_Emilia_Koustova_fevrier_2013.pdf","Research Seminar","<a href=""http://histrf.ru/biblioteka/book/istochniki-dlia-izuchieniia-obshchiestviennykh-nastroienii-i-kul-tury-rossii-khkh-vieka"" target=""_blank"">Яров 2009</a>",,,,,,,"https://www.unistra.fr/fileadmin/upload/unistra/facultes-ecoles-instituts/Departement_d_etudes_slaves/CV_Emilia_Koustova_fevrier_2013.pdf","MA Seminar","<a href=""https://www.ozon.ru/context/detail/id/30429975/"" target=""_blank"">Яров 2013</a>","<a href=""https://www.ozon.ru/context/detail/id/18489637/"" target=""_blank"">Колоницкий 2001</a>","<a href=""http://www.nlobooks.ru/node/1987"" target=""_blank"">Миллер & Липман 2012</a>",,,,,,,,,,,,,,,,,,,,,,,,,,,,,,,,,,,,,,,
"Pantheon-Sorbonne University","Университет Пантеон-Сорбонна","75005 Paris, France",2.343333,48.848611,"https://en.wikipedia.org/wiki/Pantheon-Sorbonne_University","pantheon_sorbonne_university.png","Confirmed by instructor","https://www.univ-paris1.fr/autres-structures-de-recherche/ipr/les-centres-de-recherche/crhs/les-membres-du-crhs/les-enseignants-chercheurs/francois-xavier-nerard/","Histoire de la Russie contemporaine","<a href=""https://www.ozon.ru/context/detail/id/18489637/"" target=""_blank"">Колоницкий 2001</a>","<a href=""https://books.google.ru/books/about/The_Collective_and_the_Individual_in_Rus.html?id=PbQqdOu3xJUC&redir_esc=y"" target=""_blank"">Kharkhordin 1999</a>","<a href=""http://www.soclabo.org/index.php/laboratorium/article/view/497/1193"" target=""_blank"">Богданова 2014</a>",,,,,,,,,,,,,,,,,,,,,,,,,,,,,,,,,,,,,,,,,,,,,,,,,,,,,,,,,,,
"University of Southampton","Университет Саутгемптона","Southampton, United Kingdom",-1.39595,50.93463,"https://en.wikipedia.org/wiki/University_of_Southampton","university_southampton.png","Confirmed by instructor","http://www.southampton.ac.uk/history/about/staff/calf1y08.page","Jewish Society and Culture in Eastern Europe","<a href=""https://eu.spb.ru/en/petersburg-judaica/the-first-jewish-museum-in-russia"" target=""_blank"">Photo Archive</a>",,,,,,,,,,,,,,,,,,,,,,,,,,,,,,,,,,,,,,,,,,,,,,,,,,,,,,,,,,,,,
"University of Helsinki","Университет Хельсинки","Yliopistonkatu 4, 00100 Helsinki, Finland",24.95,60.169444,"https://en.wikipedia.org/wiki/University_of_Helsinki","university_helsinki.png","Confirmed by instructor","https://tuhat.helsinki.fi/portal/en/activities/kirill-postoutenko(dd8137fc-6dbf-4804-9a75-6cb2207e1c43).html","Totalitarian Communication: Hierarchies, Codes and Messages","<a href=""https://www.amazon.com/Interpreting-Russian-Revolution-Language-Symbols/dp/0300081065"" target=""_blank"">Kolonitskii & Figes 1999</a>",,,,,,,,,,,,,,,,,,,,,,,,,,,,,,,,,,,,,,,,,,,,,,,,,,,,,,,,,,,,,
"University of Konstanz","Университет Констанца","Universität Konstanz, 78457 Konstanz, Germany",9.188,47.69,"https://en.wikipedia.org/wiki/University_of_Konstanz","university_konstanz.png","Confirmed by instructor","https://tuhat.helsinki.fi/portal/en/activities/kirill-postoutenko(dd8137fc-6dbf-4804-9a75-6cb2207e1c43).html","Totalitarian Communication: Hierarchies, Codes and Messages","<a href=""https://www.amazon.com/Interpreting-Russian-Revolution-Language-Symbols/dp/0300081065"" target=""_blank"">Kolonitskii & Figes 1999</a>",,,,,,,,,,,,,,,,,,,,,,,,,,,,,,,,,,,,,,,,,,,,,,,,,,,,,,,,,,,,,
"Tel Aviv University","Тель-Авивский университет","Tel Aviv-Yafo, Israel",34.801361,32.111767,"https://en.wikipedia.org/wiki/Tel_Aviv_University","tel_aviv_university.png","Confirmed by instructor","https://english.tau.ac.il/profile/vera","Vera Kaplan","<a href=""http://sites.bu.edu/revolutionaryrussia/files/2013/09/Kolonitskii.pdf"" target=""_blank"">Kolonitskii 1998</a>","<a href=""https://www.google.ru/url?sa=t&rct=j&q=&esrc=s&source=web&cd=1&cad=rja&uact=8&ved=0ahUKEwjovY_E_9HTAhWIHpoKHQM1CeYQFggpMAA&url=http%3A%2F%2Fold.eu.spb.ru%2Fhistory%2Fstaff%2Fcolonizky1.doc&usg=AFQjCNHhM7z747BmliucV-tHUSPacyn4wg&sig2=EFeB5t8dTjteGv0qykqlLg"" target=""_blank"">Колоницкий 2001</a>","<a href=""http://www.nlobooks.ru/node/2380"" target=""_blank"">Колоницкий 2010</a>",,,,,,,,,,,,,,,,,,,,,,,,,,,,,,,,,,,,,,,,,,,,,,,,,,,,,,,,,,,
"Saint Petersburg State Institute of Technology","Санкт-Петербургский государственный технологический институт","Moskovsky Ave, 26, Sankt-Peterburg, 190013",30.32,59.9183,"https://en.wikipedia.org/wiki/Saint_Petersburg_State_Institute_of_Technology","saint_petersburg_state_institute_technology.png","Confirmed by instructor","http://technolog.edu.ru/faculties/economics-and-management/kafedry-6-fakulteta/kafedra-istorii-otechestva-nauki-i-kultury/metodicheskie-materialy.html","История России","<a href=""http://nestorbook.ru/uCat/item/606"" target=""_blank"">Маленький человек и большая война в истории России</a>","<a href=""http://www.nlobooks.ru/node/2380"" target=""_blank"">Колоницкий 2010</a>",,,,,,,,,,,,,,,,,,,,,,,,,,,,,,,,,,,,,,,,,,,,,,,,,,,,,,,,,,,,
"Paris Nanterre University","Парижский университет в Нантере","200 Avenue de la République, 92000 Nanterre, France",2.213889,48.903889,"https://en.wikipedia.org/wiki/Paris_Nanterre_University","paris_nanterre_university.png","Confirmed by instructor","http://www.parisnanterre.fr/mme-anne-le-huerou--700157.kjsp?RH=FR","Law Judiciary and Society in Contemporary Russia","<a href=""http://enforce.spb.ru/products/books/6709-2016-mar-15-09-59-22"" target=""_blank"">Российские судьи: социологическое исследование профессии</a>","<a href=""http://enforce.spb.ru/products/books/6572-2015-jul-06-12-23-44"" target=""_blank"">Обвинение и оправдание в постсоветской уголовной юстиции</a>",,,,,,,,,,,,,,,,,,,,,,,,,,,,,,,,,,,,,,,,,,,,,,,,,,,,,,,,,,,,
